<?xml version="1.0" encoding="utf-8"?>
<gpx xmlns="http://www.topografix.com/GPX/1/1" version="1.1" creator="https://mapy.com/">
	<trk>
		<name>Trasa z 49.701039N, 15.768406E do 49.701060N, 15.768431E</name>
		<trkseg>
			<trkpt lat="49.701009" lon="15.768398">
				<ele>560.000000</ele>
			</trkpt>
			<trkpt lat="49.701009" lon="15.768398">
				<ele>560.000000</ele>
			</trkpt>
			<trkpt lat="49.700794" lon="15.768137">
				<ele>560.000000</ele>
			</trkpt>
			<trkpt lat="49.700689" lon="15.768003">
				<ele>559.000000</ele>
			</trkpt>
			<trkpt lat="49.700637" lon="15.767877">
				<ele>559.000000</ele>
			</trkpt>
			<trkpt lat="49.700567" lon="15.767751">
				<ele>559.000000</ele>
			</trkpt>
			<trkpt lat="49.700492" lon="15.767661">
				<ele>559.000000</ele>
			</trkpt>
			<trkpt lat="49.700225" lon="15.767481">
				<ele>558.000000</ele>
			</trkpt>
			<trkpt lat="49.700021" lon="15.767364">
				<ele>558.000000</ele>
			</trkpt>
			<trkpt lat="49.699911" lon="15.767311">
				<ele>558.000000</ele>
			</trkpt>
			<trkpt lat="49.699847" lon="15.767238">
				<ele>558.000000</ele>
			</trkpt>
			<trkpt lat="49.699830" lon="15.767194">
				<ele>558.000000</ele>
			</trkpt>
			<trkpt lat="49.699812" lon="15.767122">
				<ele>558.000000</ele>
			</trkpt>
			<trkpt lat="49.699777" lon="15.766942">
				<ele>557.000000</ele>
			</trkpt>
			<trkpt lat="49.699742" lon="15.766817">
				<ele>557.000000</ele>
			</trkpt>
			<trkpt lat="49.699690" lon="15.766682">
				<ele>557.000000</ele>
			</trkpt>
			<trkpt lat="49.699603" lon="15.766709">
				<ele>557.000000</ele>
			</trkpt>
			<trkpt lat="49.699464" lon="15.766709">
				<ele>557.000000</ele>
			</trkpt>
			<trkpt lat="49.699388" lon="15.766701">
				<ele>557.000000</ele>
			</trkpt>
			<trkpt lat="49.699313" lon="15.766718">
				<ele>557.000000</ele>
			</trkpt>
			<trkpt lat="49.699260" lon="15.766754">
				<ele>557.000000</ele>
			</trkpt>
			<trkpt lat="49.699202" lon="15.766798">
				<ele>557.000000</ele>
			</trkpt>
			<trkpt lat="49.699208" lon="15.766691">
				<ele>558.000000</ele>
			</trkpt>
			<trkpt lat="49.699214" lon="15.766565">
				<ele>558.000000</ele>
			</trkpt>
			<trkpt lat="49.699237" lon="15.766368">
				<ele>558.000000</ele>
			</trkpt>
			<trkpt lat="49.699237" lon="15.766143">
				<ele>559.000000</ele>
			</trkpt>
			<trkpt lat="49.699248" lon="15.765900">
				<ele>558.000000</ele>
			</trkpt>
			<trkpt lat="49.699266" lon="15.765720">
				<ele>557.000000</ele>
			</trkpt>
			<trkpt lat="49.699248" lon="15.765676">
				<ele>557.000000</ele>
			</trkpt>
			<trkpt lat="49.699231" lon="15.765603">
				<ele>557.000000</ele>
			</trkpt>
			<trkpt lat="49.699202" lon="15.765424">
				<ele>557.000000</ele>
			</trkpt>
			<trkpt lat="49.699191" lon="15.764940">
				<ele>557.000000</ele>
			</trkpt>
			<trkpt lat="49.699179" lon="15.764229">
				<ele>557.000000</ele>
			</trkpt>
			<trkpt lat="49.699138" lon="15.763106">
				<ele>557.000000</ele>
			</trkpt>
			<trkpt lat="49.699138" lon="15.763026">
				<ele>557.000000</ele>
			</trkpt>
			<trkpt lat="49.699115" lon="15.762927">
				<ele>557.000000</ele>
			</trkpt>
			<trkpt lat="49.699069" lon="15.762793">
				<ele>557.000000</ele>
			</trkpt>
			<trkpt lat="49.698709" lon="15.761867">
				<ele>557.000000</ele>
			</trkpt>
			<trkpt lat="49.698609" lon="15.761661">
				<ele>557.000000</ele>
			</trkpt>
			<trkpt lat="49.698528" lon="15.761489">
				<ele>557.000000</ele>
			</trkpt>
			<trkpt lat="49.698487" lon="15.761337">
				<ele>559.000000</ele>
			</trkpt>
			<trkpt lat="49.698470" lon="15.761166">
				<ele>556.000000</ele>
			</trkpt>
			<trkpt lat="49.698470" lon="15.761032">
				<ele>554.000000</ele>
			</trkpt>
			<trkpt lat="49.698499" lon="15.760619">
				<ele>549.000000</ele>
			</trkpt>
			<trkpt lat="49.698517" lon="15.760447">
				<ele>548.000000</ele>
			</trkpt>
			<trkpt lat="49.698534" lon="15.760385">
				<ele>548.000000</ele>
			</trkpt>
			<trkpt lat="49.698574" lon="15.760313">
				<ele>547.000000</ele>
			</trkpt>
			<trkpt lat="49.698818" lon="15.759819">
				<ele>544.000000</ele>
			</trkpt>
			<trkpt lat="49.698755" lon="15.759674">
				<ele>544.000000</ele>
			</trkpt>
			<trkpt lat="49.698731" lon="15.759621">
				<ele>544.000000</ele>
			</trkpt>
			<trkpt lat="49.698615" lon="15.759603">
				<ele>542.000000</ele>
			</trkpt>
			<trkpt lat="49.698540" lon="15.759603">
				<ele>541.000000</ele>
			</trkpt>
			<trkpt lat="49.698476" lon="15.759630">
				<ele>539.000000</ele>
			</trkpt>
			<trkpt lat="49.698417" lon="15.759684">
				<ele>538.000000</ele>
			</trkpt>
			<trkpt lat="49.698389" lon="15.759703">
				<ele>537.000000</ele>
			</trkpt>
			<trkpt lat="49.698360" lon="15.759711">
				<ele>537.000000</ele>
			</trkpt>
			<trkpt lat="49.698325" lon="15.759703">
				<ele>536.000000</ele>
			</trkpt>
			<trkpt lat="49.698290" lon="15.759684">
				<ele>535.000000</ele>
			</trkpt>
			<trkpt lat="49.698301" lon="15.759504">
				<ele>535.000000</ele>
			</trkpt>
			<trkpt lat="49.698273" lon="15.759244">
				<ele>535.000000</ele>
			</trkpt>
			<trkpt lat="49.698238" lon="15.758894">
				<ele>535.000000</ele>
			</trkpt>
			<trkpt lat="49.698214" lon="15.758632">
				<ele>535.000000</ele>
			</trkpt>
			<trkpt lat="49.698197" lon="15.758363">
				<ele>535.000000</ele>
			</trkpt>
			<trkpt lat="49.698075" lon="15.758372">
				<ele>535.000000</ele>
			</trkpt>
			<trkpt lat="49.697854" lon="15.758426">
				<ele>535.000000</ele>
			</trkpt>
			<trkpt lat="49.697756" lon="15.758445">
				<ele>535.000000</ele>
			</trkpt>
			<trkpt lat="49.697715" lon="15.758426">
				<ele>535.000000</ele>
			</trkpt>
			<trkpt lat="49.697668" lon="15.758408">
				<ele>535.000000</ele>
			</trkpt>
			<trkpt lat="49.697634" lon="15.758372">
				<ele>535.000000</ele>
			</trkpt>
			<trkpt lat="49.697599" lon="15.758345">
				<ele>535.000000</ele>
			</trkpt>
			<trkpt lat="49.697569" lon="15.758282">
				<ele>535.000000</ele>
			</trkpt>
			<trkpt lat="49.697546" lon="15.758219">
				<ele>535.000000</ele>
			</trkpt>
			<trkpt lat="49.697523" lon="15.758148">
				<ele>535.000000</ele>
			</trkpt>
			<trkpt lat="49.697517" lon="15.758066">
				<ele>535.000000</ele>
			</trkpt>
			<trkpt lat="49.697517" lon="15.757969">
				<ele>535.000000</ele>
			</trkpt>
			<trkpt lat="49.697517" lon="15.757869">
				<ele>535.000000</ele>
			</trkpt>
			<trkpt lat="49.697534" lon="15.757770">
				<ele>535.000000</ele>
			</trkpt>
			<trkpt lat="49.697558" lon="15.757672">
				<ele>535.000000</ele>
			</trkpt>
			<trkpt lat="49.697628" lon="15.757529">
				<ele>535.000000</ele>
			</trkpt>
			<trkpt lat="49.697756" lon="15.757321">
				<ele>535.000000</ele>
			</trkpt>
			<trkpt lat="49.697791" lon="15.757231">
				<ele>535.000000</ele>
			</trkpt>
			<trkpt lat="49.697813" lon="15.757151">
				<ele>535.000000</ele>
			</trkpt>
			<trkpt lat="49.697813" lon="15.757070">
				<ele>535.000000</ele>
			</trkpt>
			<trkpt lat="49.697784" lon="15.756963">
				<ele>535.000000</ele>
			</trkpt>
			<trkpt lat="49.697761" lon="15.756890">
				<ele>535.000000</ele>
			</trkpt>
			<trkpt lat="49.697703" lon="15.756791">
				<ele>535.000000</ele>
			</trkpt>
			<trkpt lat="49.697680" lon="15.756747">
				<ele>535.000000</ele>
			</trkpt>
			<trkpt lat="49.697599" lon="15.756611">
				<ele>535.000000</ele>
			</trkpt>
			<trkpt lat="49.697529" lon="15.756495">
				<ele>535.000000</ele>
			</trkpt>
			<trkpt lat="49.697401" lon="15.756342">
				<ele>535.000000</ele>
			</trkpt>
			<trkpt lat="49.697111" lon="15.756028">
				<ele>535.000000</ele>
			</trkpt>
			<trkpt lat="49.696779" lon="15.755651">
				<ele>535.000000</ele>
			</trkpt>
			<trkpt lat="49.696680" lon="15.755569">
				<ele>535.000000</ele>
			</trkpt>
			<trkpt lat="49.696570" lon="15.755479">
				<ele>535.000000</ele>
			</trkpt>
			<trkpt lat="49.696390" lon="15.755372">
				<ele>535.000000</ele>
			</trkpt>
			<trkpt lat="49.696221" lon="15.755273">
				<ele>535.000000</ele>
			</trkpt>
			<trkpt lat="49.696036" lon="15.755183">
				<ele>535.000000</ele>
			</trkpt>
			<trkpt lat="49.695844" lon="15.755112">
				<ele>535.000000</ele>
			</trkpt>
			<trkpt lat="49.695867" lon="15.754959">
				<ele>535.000000</ele>
			</trkpt>
			<trkpt lat="49.695884" lon="15.754824">
				<ele>535.000000</ele>
			</trkpt>
			<trkpt lat="49.695919" lon="15.754699">
				<ele>535.000000</ele>
			</trkpt>
			<trkpt lat="49.695960" lon="15.754581">
				<ele>535.000000</ele>
			</trkpt>
			<trkpt lat="49.696041" lon="15.754374">
				<ele>535.000000</ele>
			</trkpt>
			<trkpt lat="49.696274" lon="15.753898">
				<ele>535.000000</ele>
			</trkpt>
			<trkpt lat="49.696337" lon="15.753747">
				<ele>535.000000</ele>
			</trkpt>
			<trkpt lat="49.696384" lon="15.753611">
				<ele>535.000000</ele>
			</trkpt>
			<trkpt lat="49.696472" lon="15.753306">
				<ele>535.000000</ele>
			</trkpt>
			<trkpt lat="49.696553" lon="15.752866">
				<ele>535.000000</ele>
			</trkpt>
			<trkpt lat="49.696582" lon="15.752669">
				<ele>535.000000</ele>
			</trkpt>
			<trkpt lat="49.696576" lon="15.752497">
				<ele>535.000000</ele>
			</trkpt>
			<trkpt lat="49.696559" lon="15.752309">
				<ele>535.000000</ele>
			</trkpt>
			<trkpt lat="49.696477" lon="15.751950">
				<ele>535.000000</ele>
			</trkpt>
			<trkpt lat="49.696454" lon="15.751779">
				<ele>535.000000</ele>
			</trkpt>
			<trkpt lat="49.696442" lon="15.751600">
				<ele>535.000000</ele>
			</trkpt>
			<trkpt lat="49.696454" lon="15.751401">
				<ele>535.000000</ele>
			</trkpt>
			<trkpt lat="49.696500" lon="15.751158">
				<ele>535.000000</ele>
			</trkpt>
			<trkpt lat="49.696559" lon="15.750917">
				<ele>535.000000</ele>
			</trkpt>
			<trkpt lat="49.696622" lon="15.750728">
				<ele>535.000000</ele>
			</trkpt>
			<trkpt lat="49.696814" lon="15.750233">
				<ele>536.000000</ele>
			</trkpt>
			<trkpt lat="49.696866" lon="15.750082">
				<ele>536.000000</ele>
			</trkpt>
			<trkpt lat="49.696913" lon="15.749902">
				<ele>536.000000</ele>
			</trkpt>
			<trkpt lat="49.696954" lon="15.749667">
				<ele>537.000000</ele>
			</trkpt>
			<trkpt lat="49.696989" lon="15.749191">
				<ele>537.000000</ele>
			</trkpt>
			<trkpt lat="49.697017" lon="15.749084">
				<ele>537.000000</ele>
			</trkpt>
			<trkpt lat="49.697046" lon="15.748958">
				<ele>537.000000</ele>
			</trkpt>
			<trkpt lat="49.697093" lon="15.748805">
				<ele>538.000000</ele>
			</trkpt>
			<trkpt lat="49.697145" lon="15.748680">
				<ele>538.000000</ele>
			</trkpt>
			<trkpt lat="49.697209" lon="15.748563">
				<ele>538.000000</ele>
			</trkpt>
			<trkpt lat="49.697302" lon="15.748411">
				<ele>538.000000</ele>
			</trkpt>
			<trkpt lat="49.697477" lon="15.748177">
				<ele>539.000000</ele>
			</trkpt>
			<trkpt lat="49.697773" lon="15.747845">
				<ele>539.000000</ele>
			</trkpt>
			<trkpt lat="49.697918" lon="15.747673">
				<ele>540.000000</ele>
			</trkpt>
			<trkpt lat="49.698029" lon="15.747476">
				<ele>540.000000</ele>
			</trkpt>
			<trkpt lat="49.698075" lon="15.747377">
				<ele>540.000000</ele>
			</trkpt>
			<trkpt lat="49.698110" lon="15.747287">
				<ele>540.000000</ele>
			</trkpt>
			<trkpt lat="49.698156" lon="15.747063">
				<ele>540.000000</ele>
			</trkpt>
			<trkpt lat="49.698185" lon="15.746856">
				<ele>540.000000</ele>
			</trkpt>
			<trkpt lat="49.698197" lon="15.746631">
				<ele>540.000000</ele>
			</trkpt>
			<trkpt lat="49.698203" lon="15.746273">
				<ele>540.000000</ele>
			</trkpt>
			<trkpt lat="49.698220" lon="15.745814">
				<ele>540.000000</ele>
			</trkpt>
			<trkpt lat="49.698226" lon="15.745634">
				<ele>540.000000</ele>
			</trkpt>
			<trkpt lat="49.698255" lon="15.745472">
				<ele>540.000000</ele>
			</trkpt>
			<trkpt lat="49.698290" lon="15.745321">
				<ele>540.000000</ele>
			</trkpt>
			<trkpt lat="49.698336" lon="15.745195">
				<ele>540.000000</ele>
			</trkpt>
			<trkpt lat="49.698395" lon="15.745059">
				<ele>540.000000</ele>
			</trkpt>
			<trkpt lat="49.698458" lon="15.744933">
				<ele>540.000000</ele>
			</trkpt>
			<trkpt lat="49.698784" lon="15.744386">
				<ele>540.000000</ele>
			</trkpt>
			<trkpt lat="49.698912" lon="15.744009">
				<ele>540.000000</ele>
			</trkpt>
			<trkpt lat="49.698993" lon="15.743774">
				<ele>540.000000</ele>
			</trkpt>
			<trkpt lat="49.699063" lon="15.743497">
				<ele>540.000000</ele>
			</trkpt>
			<trkpt lat="49.699115" lon="15.743218">
				<ele>540.000000</ele>
			</trkpt>
			<trkpt lat="49.699156" lon="15.742705">
				<ele>540.000000</ele>
			</trkpt>
			<trkpt lat="49.699173" lon="15.742526">
				<ele>540.000000</ele>
			</trkpt>
			<trkpt lat="49.699191" lon="15.742436">
				<ele>540.000000</ele>
			</trkpt>
			<trkpt lat="49.699231" lon="15.742338">
				<ele>540.000000</ele>
			</trkpt>
			<trkpt lat="49.699266" lon="15.742239">
				<ele>540.000000</ele>
			</trkpt>
			<trkpt lat="49.699313" lon="15.742140">
				<ele>540.000000</ele>
			</trkpt>
			<trkpt lat="49.699423" lon="15.741933">
				<ele>540.000000</ele>
			</trkpt>
			<trkpt lat="49.699492" lon="15.741772">
				<ele>540.000000</ele>
			</trkpt>
			<trkpt lat="49.699557" lon="15.741583">
				<ele>540.000000</ele>
			</trkpt>
			<trkpt lat="49.699614" lon="15.741331">
				<ele>540.000000</ele>
			</trkpt>
			<trkpt lat="49.699696" lon="15.740954">
				<ele>540.000000</ele>
			</trkpt>
			<trkpt lat="49.699754" lon="15.740721">
				<ele>540.000000</ele>
			</trkpt>
			<trkpt lat="49.699818" lon="15.740514">
				<ele>540.000000</ele>
			</trkpt>
			<trkpt lat="49.699899" lon="15.740281">
				<ele>540.000000</ele>
			</trkpt>
			<trkpt lat="49.699946" lon="15.740145">
				<ele>540.000000</ele>
			</trkpt>
			<trkpt lat="49.699975" lon="15.740002">
				<ele>540.000000</ele>
			</trkpt>
			<trkpt lat="49.699993" lon="15.739849">
				<ele>540.000000</ele>
			</trkpt>
			<trkpt lat="49.700010" lon="15.739606">
				<ele>540.000000</ele>
			</trkpt>
			<trkpt lat="49.700039" lon="15.739176">
				<ele>540.000000</ele>
			</trkpt>
			<trkpt lat="49.700097" lon="15.738744">
				<ele>540.000000</ele>
			</trkpt>
			<trkpt lat="49.700091" lon="15.738591">
				<ele>540.000000</ele>
			</trkpt>
			<trkpt lat="49.700062" lon="15.738484">
				<ele>540.000000</ele>
			</trkpt>
			<trkpt lat="49.700004" lon="15.738295">
				<ele>540.000000</ele>
			</trkpt>
			<trkpt lat="49.699975" lon="15.738187">
				<ele>540.000000</ele>
			</trkpt>
			<trkpt lat="49.699969" lon="15.738080">
				<ele>540.000000</ele>
			</trkpt>
			<trkpt lat="49.699975" lon="15.737963">
				<ele>540.000000</ele>
			</trkpt>
			<trkpt lat="49.700033" lon="15.737604">
				<ele>540.000000</ele>
			</trkpt>
			<trkpt lat="49.700050" lon="15.737424">
				<ele>540.000000</ele>
			</trkpt>
			<trkpt lat="49.700056" lon="15.736570">
				<ele>539.000000</ele>
			</trkpt>
			<trkpt lat="49.700080" lon="15.736327">
				<ele>539.000000</ele>
			</trkpt>
			<trkpt lat="49.700109" lon="15.736086">
				<ele>539.000000</ele>
			</trkpt>
			<trkpt lat="49.700115" lon="15.735996">
				<ele>539.000000</ele>
			</trkpt>
			<trkpt lat="49.700150" lon="15.735933">
				<ele>539.000000</ele>
			</trkpt>
			<trkpt lat="49.700207" lon="15.735879">
				<ele>539.000000</ele>
			</trkpt>
			<trkpt lat="49.700312" lon="15.735824">
				<ele>539.000000</ele>
			</trkpt>
			<trkpt lat="49.700358" lon="15.735780">
				<ele>539.000000</ele>
			</trkpt>
			<trkpt lat="49.700393" lon="15.735734">
				<ele>539.000000</ele>
			</trkpt>
			<trkpt lat="49.700422" lon="15.735673">
				<ele>539.000000</ele>
			</trkpt>
			<trkpt lat="49.700451" lon="15.735564">
				<ele>538.000000</ele>
			</trkpt>
			<trkpt lat="49.700486" lon="15.735465">
				<ele>538.000000</ele>
			</trkpt>
			<trkpt lat="49.700527" lon="15.735367">
				<ele>538.000000</ele>
			</trkpt>
			<trkpt lat="49.700736" lon="15.734954">
				<ele>538.000000</ele>
			</trkpt>
			<trkpt lat="49.700800" lon="15.734818">
				<ele>538.000000</ele>
			</trkpt>
			<trkpt lat="49.700841" lon="15.734666">
				<ele>538.000000</ele>
			</trkpt>
			<trkpt lat="49.700870" lon="15.734568">
				<ele>537.000000</ele>
			</trkpt>
			<trkpt lat="49.700887" lon="15.734459">
				<ele>537.000000</ele>
			</trkpt>
			<trkpt lat="49.700899" lon="15.734361">
				<ele>537.000000</ele>
			</trkpt>
			<trkpt lat="49.700911" lon="15.734252">
				<ele>537.000000</ele>
			</trkpt>
			<trkpt lat="49.700881" lon="15.734029">
				<ele>537.000000</ele>
			</trkpt>
			<trkpt lat="49.700823" lon="15.733677">
				<ele>537.000000</ele>
			</trkpt>
			<trkpt lat="49.700887" lon="15.733723">
				<ele>537.000000</ele>
			</trkpt>
			<trkpt lat="49.700887" lon="15.733723">
				<ele>537.000000</ele>
			</trkpt>
			<trkpt lat="49.700945" lon="15.733767">
				<ele>537.000000</ele>
			</trkpt>
			<trkpt lat="49.701166" lon="15.733849">
				<ele>537.000000</ele>
			</trkpt>
			<trkpt lat="49.701334" lon="15.733912">
				<ele>537.000000</ele>
			</trkpt>
			<trkpt lat="49.701520" lon="15.733912">
				<ele>537.000000</ele>
			</trkpt>
			<trkpt lat="49.701660" lon="15.733912">
				<ele>538.000000</ele>
			</trkpt>
			<trkpt lat="49.701776" lon="15.733947">
				<ele>538.000000</ele>
			</trkpt>
			<trkpt lat="49.701863" lon="15.733975">
				<ele>538.000000</ele>
			</trkpt>
			<trkpt lat="49.701927" lon="15.734002">
				<ele>538.000000</ele>
			</trkpt>
			<trkpt lat="49.702073" lon="15.734073">
				<ele>537.000000</ele>
			</trkpt>
			<trkpt lat="49.702211" lon="15.734172">
				<ele>536.000000</ele>
			</trkpt>
			<trkpt lat="49.702537" lon="15.734415">
				<ele>534.000000</ele>
			</trkpt>
			<trkpt lat="49.702653" lon="15.734541">
				<ele>533.000000</ele>
			</trkpt>
			<trkpt lat="49.702804" lon="15.734692">
				<ele>531.000000</ele>
			</trkpt>
			<trkpt lat="49.702839" lon="15.734719">
				<ele>531.000000</ele>
			</trkpt>
			<trkpt lat="49.702869" lon="15.734738">
				<ele>531.000000</ele>
			</trkpt>
			<trkpt lat="49.702938" lon="15.734738">
				<ele>530.000000</ele>
			</trkpt>
			<trkpt lat="49.702985" lon="15.734692">
				<ele>530.000000</ele>
			</trkpt>
			<trkpt lat="49.703037" lon="15.734639">
				<ele>530.000000</ele>
			</trkpt>
			<trkpt lat="49.703182" lon="15.734369">
				<ele>530.000000</ele>
			</trkpt>
			<trkpt lat="49.703275" lon="15.734199">
				<ele>530.000000</ele>
			</trkpt>
			<trkpt lat="49.703386" lon="15.734055">
				<ele>530.000000</ele>
			</trkpt>
			<trkpt lat="49.703490" lon="15.733912">
				<ele>530.000000</ele>
			</trkpt>
			<trkpt lat="49.703583" lon="15.733822">
				<ele>530.000000</ele>
			</trkpt>
			<trkpt lat="49.703682" lon="15.733723">
				<ele>530.000000</ele>
			</trkpt>
			<trkpt lat="49.703920" lon="15.733489">
				<ele>530.000000</ele>
			</trkpt>
			<trkpt lat="49.704245" lon="15.733247">
				<ele>530.000000</ele>
			</trkpt>
			<trkpt lat="49.704414" lon="15.733121">
				<ele>530.000000</ele>
			</trkpt>
			<trkpt lat="49.704524" lon="15.733031">
				<ele>530.000000</ele>
			</trkpt>
			<trkpt lat="49.704623" lon="15.732905">
				<ele>530.000000</ele>
			</trkpt>
			<trkpt lat="49.704669" lon="15.732851">
				<ele>531.000000</ele>
			</trkpt>
			<trkpt lat="49.704704" lon="15.732807">
				<ele>531.000000</ele>
			</trkpt>
			<trkpt lat="49.704821" lon="15.732744">
				<ele>531.000000</ele>
			</trkpt>
			<trkpt lat="49.705326" lon="15.732484">
				<ele>534.000000</ele>
			</trkpt>
			<trkpt lat="49.705372" lon="15.732447">
				<ele>534.000000</ele>
			</trkpt>
			<trkpt lat="49.705407" lon="15.732394">
				<ele>534.000000</ele>
			</trkpt>
			<trkpt lat="49.705506" lon="15.732492">
				<ele>535.000000</ele>
			</trkpt>
			<trkpt lat="49.705599" lon="15.732573">
				<ele>535.000000</ele>
			</trkpt>
			<trkpt lat="49.705750" lon="15.732654">
				<ele>535.000000</ele>
			</trkpt>
			<trkpt lat="49.705849" lon="15.732753">
				<ele>535.000000</ele>
			</trkpt>
			<trkpt lat="49.705883" lon="15.732618">
				<ele>535.000000</ele>
			</trkpt>
			<trkpt lat="49.705901" lon="15.732465">
				<ele>535.000000</ele>
			</trkpt>
			<trkpt lat="49.705895" lon="15.732304">
				<ele>535.000000</ele>
			</trkpt>
			<trkpt lat="49.705861" lon="15.732088">
				<ele>535.000000</ele>
			</trkpt>
			<trkpt lat="49.705843" lon="15.731952">
				<ele>535.000000</ele>
			</trkpt>
			<trkpt lat="49.705837" lon="15.731828">
				<ele>535.000000</ele>
			</trkpt>
			<trkpt lat="49.705855" lon="15.731719">
				<ele>535.000000</ele>
			</trkpt>
			<trkpt lat="49.705889" lon="15.731602">
				<ele>535.000000</ele>
			</trkpt>
			<trkpt lat="49.705947" lon="15.731450">
				<ele>535.000000</ele>
			</trkpt>
			<trkpt lat="49.705982" lon="15.731306">
				<ele>535.000000</ele>
			</trkpt>
			<trkpt lat="49.706011" lon="15.731153">
				<ele>535.000000</ele>
			</trkpt>
			<trkpt lat="49.706023" lon="15.730983">
				<ele>535.000000</ele>
			</trkpt>
			<trkpt lat="49.706005" lon="15.730371">
				<ele>535.000000</ele>
			</trkpt>
			<trkpt lat="49.706005" lon="15.730111">
				<ele>535.000000</ele>
			</trkpt>
			<trkpt lat="49.706034" lon="15.729887">
				<ele>535.000000</ele>
			</trkpt>
			<trkpt lat="49.706174" lon="15.729195">
				<ele>535.000000</ele>
			</trkpt>
			<trkpt lat="49.706215" lon="15.729069">
				<ele>535.000000</ele>
			</trkpt>
			<trkpt lat="49.706256" lon="15.728962">
				<ele>535.000000</ele>
			</trkpt>
			<trkpt lat="49.706319" lon="15.728881">
				<ele>535.000000</ele>
			</trkpt>
			<trkpt lat="49.706400" lon="15.728782">
				<ele>535.000000</ele>
			</trkpt>
			<trkpt lat="49.706557" lon="15.728665">
				<ele>535.000000</ele>
			</trkpt>
			<trkpt lat="49.706807" lon="15.728459">
				<ele>535.000000</ele>
			</trkpt>
			<trkpt lat="49.706865" lon="15.728405">
				<ele>535.000000</ele>
			</trkpt>
			<trkpt lat="49.706917" lon="15.728350">
				<ele>535.000000</ele>
			</trkpt>
			<trkpt lat="49.706964" lon="15.728270">
				<ele>535.000000</ele>
			</trkpt>
			<trkpt lat="49.707028" lon="15.728117">
				<ele>535.000000</ele>
			</trkpt>
			<trkpt lat="49.707202" lon="15.727767">
				<ele>535.000000</ele>
			</trkpt>
			<trkpt lat="49.707301" lon="15.727560">
				<ele>535.000000</ele>
			</trkpt>
			<trkpt lat="49.707412" lon="15.727398">
				<ele>535.000000</ele>
			</trkpt>
			<trkpt lat="49.707539" lon="15.727218">
				<ele>535.000000</ele>
			</trkpt>
			<trkpt lat="49.707673" lon="15.727067">
				<ele>535.000000</ele>
			</trkpt>
			<trkpt lat="49.708033" lon="15.726671">
				<ele>535.000000</ele>
			</trkpt>
			<trkpt lat="49.708225" lon="15.726428">
				<ele>534.000000</ele>
			</trkpt>
			<trkpt lat="49.708318" lon="15.726509">
				<ele>534.000000</ele>
			</trkpt>
			<trkpt lat="49.708376" lon="15.726608">
				<ele>534.000000</ele>
			</trkpt>
			<trkpt lat="49.708730" lon="15.727407">
				<ele>532.000000</ele>
			</trkpt>
			<trkpt lat="49.708806" lon="15.727534">
				<ele>531.000000</ele>
			</trkpt>
			<trkpt lat="49.708875" lon="15.727641">
				<ele>531.000000</ele>
			</trkpt>
			<trkpt lat="49.709044" lon="15.727866">
				<ele>530.000000</ele>
			</trkpt>
			<trkpt lat="49.709154" lon="15.727991">
				<ele>530.000000</ele>
			</trkpt>
			<trkpt lat="49.709270" lon="15.728090">
				<ele>529.000000</ele>
			</trkpt>
			<trkpt lat="49.709404" lon="15.728180">
				<ele>529.000000</ele>
			</trkpt>
			<trkpt lat="49.709508" lon="15.728207">
				<ele>529.000000</ele>
			</trkpt>
			<trkpt lat="49.709607" lon="15.728207">
				<ele>529.000000</ele>
			</trkpt>
			<trkpt lat="49.709700" lon="15.728180">
				<ele>528.000000</ele>
			</trkpt>
			<trkpt lat="49.709962" lon="15.728073">
				<ele>528.000000</ele>
			</trkpt>
			<trkpt lat="49.710246" lon="15.727964">
				<ele>527.000000</ele>
			</trkpt>
			<trkpt lat="49.710368" lon="15.727901">
				<ele>527.000000</ele>
			</trkpt>
			<trkpt lat="49.710490" lon="15.727821">
				<ele>527.000000</ele>
			</trkpt>
			<trkpt lat="49.710763" lon="15.727633">
				<ele>526.000000</ele>
			</trkpt>
			<trkpt lat="49.711002" lon="15.727453">
				<ele>525.000000</ele>
			</trkpt>
			<trkpt lat="49.711832" lon="15.726715">
				<ele>522.000000</ele>
			</trkpt>
			<trkpt lat="49.712959" lon="15.725790">
				<ele>519.000000</ele>
			</trkpt>
			<trkpt lat="49.713331" lon="15.725459">
				<ele>519.000000</ele>
			</trkpt>
			<trkpt lat="49.713610" lon="15.725234">
				<ele>518.000000</ele>
			</trkpt>
			<trkpt lat="49.713795" lon="15.725054">
				<ele>518.000000</ele>
			</trkpt>
			<trkpt lat="49.714011" lon="15.724820">
				<ele>518.000000</ele>
			</trkpt>
			<trkpt lat="49.714231" lon="15.724505">
				<ele>517.000000</ele>
			</trkpt>
			<trkpt lat="49.714330" lon="15.724371">
				<ele>517.000000</ele>
			</trkpt>
			<trkpt lat="49.714411" lon="15.724272">
				<ele>517.000000</ele>
			</trkpt>
			<trkpt lat="49.714498" lon="15.724201">
				<ele>517.000000</ele>
			</trkpt>
			<trkpt lat="49.714620" lon="15.724119">
				<ele>517.000000</ele>
			</trkpt>
			<trkpt lat="49.715102" lon="15.723796">
				<ele>516.000000</ele>
			</trkpt>
			<trkpt lat="49.716061" lon="15.723186">
				<ele>515.000000</ele>
			</trkpt>
			<trkpt lat="49.716694" lon="15.722736">
				<ele>513.000000</ele>
			</trkpt>
			<trkpt lat="49.717118" lon="15.722440">
				<ele>510.000000</ele>
			</trkpt>
			<trkpt lat="49.717705" lon="15.722035">
				<ele>509.000000</ele>
			</trkpt>
			<trkpt lat="49.718419" lon="15.721559">
				<ele>508.000000</ele>
			</trkpt>
			<trkpt lat="49.718779" lon="15.721299">
				<ele>507.000000</ele>
			</trkpt>
			<trkpt lat="49.720614" lon="15.720104">
				<ele>501.000000</ele>
			</trkpt>
			<trkpt lat="49.721033" lon="15.719834">
				<ele>500.000000</ele>
			</trkpt>
			<trkpt lat="49.722647" lon="15.718792">
				<ele>497.000000</ele>
			</trkpt>
			<trkpt lat="49.723071" lon="15.718532">
				<ele>495.000000</ele>
			</trkpt>
			<trkpt lat="49.723303" lon="15.718398">
				<ele>492.000000</ele>
			</trkpt>
			<trkpt lat="49.723628" lon="15.718218">
				<ele>489.000000</ele>
			</trkpt>
			<trkpt lat="49.724947" lon="15.717507">
				<ele>477.000000</ele>
			</trkpt>
			<trkpt lat="49.725608" lon="15.717157">
				<ele>471.000000</ele>
			</trkpt>
			<trkpt lat="49.725870" lon="15.717005">
				<ele>469.000000</ele>
			</trkpt>
			<trkpt lat="49.725951" lon="15.716960">
				<ele>468.000000</ele>
			</trkpt>
			<trkpt lat="49.726033" lon="15.716897">
				<ele>468.000000</ele>
			</trkpt>
			<trkpt lat="49.726102" lon="15.716817">
				<ele>467.000000</ele>
			</trkpt>
			<trkpt lat="49.726166" lon="15.716735">
				<ele>466.000000</ele>
			</trkpt>
			<trkpt lat="49.726230" lon="15.716637">
				<ele>465.000000</ele>
			</trkpt>
			<trkpt lat="49.726288" lon="15.716494">
				<ele>464.000000</ele>
			</trkpt>
			<trkpt lat="49.726404" lon="15.716169">
				<ele>462.000000</ele>
			</trkpt>
			<trkpt lat="49.726433" lon="15.716125">
				<ele>461.000000</ele>
			</trkpt>
			<trkpt lat="49.726451" lon="15.716079">
				<ele>461.000000</ele>
			</trkpt>
			<trkpt lat="49.726532" lon="15.716026">
				<ele>460.000000</ele>
			</trkpt>
			<trkpt lat="49.726526" lon="15.715918">
				<ele>460.000000</ele>
			</trkpt>
			<trkpt lat="49.726544" lon="15.715783">
				<ele>460.000000</ele>
			</trkpt>
			<trkpt lat="49.726579" lon="15.715639">
				<ele>460.000000</ele>
			</trkpt>
			<trkpt lat="49.726642" lon="15.715478">
				<ele>460.000000</ele>
			</trkpt>
			<trkpt lat="49.726846" lon="15.715037">
				<ele>460.000000</ele>
			</trkpt>
			<trkpt lat="49.726869" lon="15.714983">
				<ele>460.000000</ele>
			</trkpt>
			<trkpt lat="49.726898" lon="15.714894">
				<ele>460.000000</ele>
			</trkpt>
			<trkpt lat="49.726927" lon="15.714786">
				<ele>460.000000</ele>
			</trkpt>
			<trkpt lat="49.726939" lon="15.714679">
				<ele>460.000000</ele>
			</trkpt>
			<trkpt lat="49.726944" lon="15.714553">
				<ele>460.000000</ele>
			</trkpt>
			<trkpt lat="49.727101" lon="15.714597">
				<ele>459.000000</ele>
			</trkpt>
			<trkpt lat="49.727188" lon="15.714624">
				<ele>458.000000</ele>
			</trkpt>
			<trkpt lat="49.727252" lon="15.714454">
				<ele>458.000000</ele>
			</trkpt>
			<trkpt lat="49.727397" lon="15.714157">
				<ele>459.000000</ele>
			</trkpt>
			<trkpt lat="49.727432" lon="15.714058">
				<ele>459.000000</ele>
			</trkpt>
			<trkpt lat="49.727473" lon="15.713951">
				<ele>459.000000</ele>
			</trkpt>
			<trkpt lat="49.727490" lon="15.713834">
				<ele>459.000000</ele>
			</trkpt>
			<trkpt lat="49.727507" lon="15.713654">
				<ele>459.000000</ele>
			</trkpt>
			<trkpt lat="49.727531" lon="15.713439">
				<ele>459.000000</ele>
			</trkpt>
			<trkpt lat="49.727548" lon="15.713196">
				<ele>459.000000</ele>
			</trkpt>
			<trkpt lat="49.727560" lon="15.713062">
				<ele>460.000000</ele>
			</trkpt>
			<trkpt lat="49.727548" lon="15.712926">
				<ele>460.000000</ele>
			</trkpt>
			<trkpt lat="49.727542" lon="15.712882">
				<ele>460.000000</ele>
			</trkpt>
			<trkpt lat="49.727542" lon="15.712882">
				<ele>460.000000</ele>
			</trkpt>
			<trkpt lat="49.727548" lon="15.712926">
				<ele>460.000000</ele>
			</trkpt>
			<trkpt lat="49.727560" lon="15.713062">
				<ele>460.000000</ele>
			</trkpt>
			<trkpt lat="49.727548" lon="15.713196">
				<ele>459.000000</ele>
			</trkpt>
			<trkpt lat="49.727531" lon="15.713439">
				<ele>459.000000</ele>
			</trkpt>
			<trkpt lat="49.727507" lon="15.713654">
				<ele>459.000000</ele>
			</trkpt>
			<trkpt lat="49.727490" lon="15.713834">
				<ele>459.000000</ele>
			</trkpt>
			<trkpt lat="49.727473" lon="15.713951">
				<ele>459.000000</ele>
			</trkpt>
			<trkpt lat="49.727432" lon="15.714058">
				<ele>459.000000</ele>
			</trkpt>
			<trkpt lat="49.727397" lon="15.714157">
				<ele>459.000000</ele>
			</trkpt>
			<trkpt lat="49.727252" lon="15.714454">
				<ele>458.000000</ele>
			</trkpt>
			<trkpt lat="49.727188" lon="15.714624">
				<ele>458.000000</ele>
			</trkpt>
			<trkpt lat="49.727101" lon="15.714597">
				<ele>459.000000</ele>
			</trkpt>
			<trkpt lat="49.726944" lon="15.714553">
				<ele>460.000000</ele>
			</trkpt>
			<trkpt lat="49.726939" lon="15.714679">
				<ele>460.000000</ele>
			</trkpt>
			<trkpt lat="49.726927" lon="15.714786">
				<ele>460.000000</ele>
			</trkpt>
			<trkpt lat="49.726898" lon="15.714894">
				<ele>460.000000</ele>
			</trkpt>
			<trkpt lat="49.726869" lon="15.714983">
				<ele>460.000000</ele>
			</trkpt>
			<trkpt lat="49.726846" lon="15.715037">
				<ele>460.000000</ele>
			</trkpt>
			<trkpt lat="49.726642" lon="15.715478">
				<ele>460.000000</ele>
			</trkpt>
			<trkpt lat="49.726579" lon="15.715639">
				<ele>460.000000</ele>
			</trkpt>
			<trkpt lat="49.726544" lon="15.715783">
				<ele>460.000000</ele>
			</trkpt>
			<trkpt lat="49.726526" lon="15.715918">
				<ele>460.000000</ele>
			</trkpt>
			<trkpt lat="49.726532" lon="15.716026">
				<ele>460.000000</ele>
			</trkpt>
			<trkpt lat="49.726549" lon="15.716098">
				<ele>460.000000</ele>
			</trkpt>
			<trkpt lat="49.726579" lon="15.716152">
				<ele>460.000000</ele>
			</trkpt>
			<trkpt lat="49.726614" lon="15.716224">
				<ele>460.000000</ele>
			</trkpt>
			<trkpt lat="49.726654" lon="15.716278">
				<ele>460.000000</ele>
			</trkpt>
			<trkpt lat="49.726898" lon="15.716547">
				<ele>460.000000</ele>
			</trkpt>
			<trkpt lat="49.727234" lon="15.716970">
				<ele>460.000000</ele>
			</trkpt>
			<trkpt lat="49.727409" lon="15.717176">
				<ele>460.000000</ele>
			</trkpt>
			<trkpt lat="49.727450" lon="15.717266">
				<ele>460.000000</ele>
			</trkpt>
			<trkpt lat="49.727485" lon="15.717347">
				<ele>460.000000</ele>
			</trkpt>
			<trkpt lat="49.727519" lon="15.717446">
				<ele>460.000000</ele>
			</trkpt>
			<trkpt lat="49.727537" lon="15.717553">
				<ele>460.000000</ele>
			</trkpt>
			<trkpt lat="49.727699" lon="15.718811">
				<ele>460.000000</ele>
			</trkpt>
			<trkpt lat="49.727833" lon="15.719647">
				<ele>460.000000</ele>
			</trkpt>
			<trkpt lat="49.727874" lon="15.719889">
				<ele>460.000000</ele>
			</trkpt>
			<trkpt lat="49.727937" lon="15.720167">
				<ele>460.000000</ele>
			</trkpt>
			<trkpt lat="49.727996" lon="15.720436">
				<ele>460.000000</ele>
			</trkpt>
			<trkpt lat="49.728071" lon="15.720662">
				<ele>460.000000</ele>
			</trkpt>
			<trkpt lat="49.728623" lon="15.722287">
				<ele>455.000000</ele>
			</trkpt>
			<trkpt lat="49.728936" lon="15.723195">
				<ele>451.000000</ele>
			</trkpt>
			<trkpt lat="49.729162" lon="15.723868">
				<ele>449.000000</ele>
			</trkpt>
			<trkpt lat="49.729430" lon="15.724650">
				<ele>446.000000</ele>
			</trkpt>
			<trkpt lat="49.729673" lon="15.725360">
				<ele>445.000000</ele>
			</trkpt>
			<trkpt lat="49.730539" lon="15.727910">
				<ele>445.000000</ele>
			</trkpt>
			<trkpt lat="49.730638" lon="15.728189">
				<ele>445.000000</ele>
			</trkpt>
			<trkpt lat="49.730701" lon="15.728413">
				<ele>445.000000</ele>
			</trkpt>
			<trkpt lat="49.730760" lon="15.728647">
				<ele>445.000000</ele>
			</trkpt>
			<trkpt lat="49.730928" lon="15.729411">
				<ele>443.000000</ele>
			</trkpt>
			<trkpt lat="49.730951" lon="15.729537">
				<ele>442.000000</ele>
			</trkpt>
			<trkpt lat="49.730992" lon="15.729654">
				<ele>442.000000</ele>
			</trkpt>
			<trkpt lat="49.731026" lon="15.729734">
				<ele>441.000000</ele>
			</trkpt>
			<trkpt lat="49.731079" lon="15.729824">
				<ele>441.000000</ele>
			</trkpt>
			<trkpt lat="49.731142" lon="15.729878">
				<ele>441.000000</ele>
			</trkpt>
			<trkpt lat="49.731212" lon="15.729923">
				<ele>440.000000</ele>
			</trkpt>
			<trkpt lat="49.731456" lon="15.730021">
				<ele>439.000000</ele>
			</trkpt>
			<trkpt lat="49.731671" lon="15.730094">
				<ele>438.000000</ele>
			</trkpt>
			<trkpt lat="49.731769" lon="15.730121">
				<ele>438.000000</ele>
			</trkpt>
			<trkpt lat="49.731932" lon="15.730111">
				<ele>437.000000</ele>
			</trkpt>
			<trkpt lat="49.732147" lon="15.730075">
				<ele>436.000000</ele>
			</trkpt>
			<trkpt lat="49.732258" lon="15.730048">
				<ele>436.000000</ele>
			</trkpt>
			<trkpt lat="49.732327" lon="15.730031">
				<ele>436.000000</ele>
			</trkpt>
			<trkpt lat="49.732396" lon="15.730021">
				<ele>435.000000</ele>
			</trkpt>
			<trkpt lat="49.732524" lon="15.730048">
				<ele>435.000000</ele>
			</trkpt>
			<trkpt lat="49.732640" lon="15.730121">
				<ele>435.000000</ele>
			</trkpt>
			<trkpt lat="49.732751" lon="15.730247">
				<ele>434.000000</ele>
			</trkpt>
			<trkpt lat="49.732919" lon="15.730516">
				<ele>433.000000</ele>
			</trkpt>
			<trkpt lat="49.733007" lon="15.730623">
				<ele>433.000000</ele>
			</trkpt>
			<trkpt lat="49.733088" lon="15.730713">
				<ele>433.000000</ele>
			</trkpt>
			<trkpt lat="49.733134" lon="15.730767">
				<ele>433.000000</ele>
			</trkpt>
			<trkpt lat="49.733320" lon="15.730965">
				<ele>432.000000</ele>
			</trkpt>
			<trkpt lat="49.733738" lon="15.731360">
				<ele>430.000000</ele>
			</trkpt>
			<trkpt lat="49.734034" lon="15.731665">
				<ele>430.000000</ele>
			</trkpt>
			<trkpt lat="49.734185" lon="15.731809">
				<ele>430.000000</ele>
			</trkpt>
			<trkpt lat="49.734330" lon="15.731962">
				<ele>430.000000</ele>
			</trkpt>
			<trkpt lat="49.734383" lon="15.732007">
				<ele>430.000000</ele>
			</trkpt>
			<trkpt lat="49.734452" lon="15.732105">
				<ele>430.000000</ele>
			</trkpt>
			<trkpt lat="49.734510" lon="15.732187">
				<ele>430.000000</ele>
			</trkpt>
			<trkpt lat="49.734545" lon="15.732241">
				<ele>430.000000</ele>
			</trkpt>
			<trkpt lat="49.734586" lon="15.732429">
				<ele>430.000000</ele>
			</trkpt>
			<trkpt lat="49.734615" lon="15.732644">
				<ele>430.000000</ele>
			</trkpt>
			<trkpt lat="49.734609" lon="15.732870">
				<ele>430.000000</ele>
			</trkpt>
			<trkpt lat="49.734592" lon="15.733094">
				<ele>430.000000</ele>
			</trkpt>
			<trkpt lat="49.734562" lon="15.733247">
				<ele>430.000000</ele>
			</trkpt>
			<trkpt lat="49.734516" lon="15.733400">
				<ele>430.000000</ele>
			</trkpt>
			<trkpt lat="49.734261" lon="15.734100">
				<ele>430.000000</ele>
			</trkpt>
			<trkpt lat="49.733924" lon="15.734971">
				<ele>430.000000</ele>
			</trkpt>
			<trkpt lat="49.733668" lon="15.735645">
				<ele>430.000000</ele>
			</trkpt>
			<trkpt lat="49.733622" lon="15.735816">
				<ele>430.000000</ele>
			</trkpt>
			<trkpt lat="49.733593" lon="15.735960">
				<ele>430.000000</ele>
			</trkpt>
			<trkpt lat="49.733581" lon="15.736113">
				<ele>430.000000</ele>
			</trkpt>
			<trkpt lat="49.733593" lon="15.736283">
				<ele>430.000000</ele>
			</trkpt>
			<trkpt lat="49.733616" lon="15.736436">
				<ele>430.000000</ele>
			</trkpt>
			<trkpt lat="49.733662" lon="15.736616">
				<ele>430.000000</ele>
			</trkpt>
			<trkpt lat="49.733837" lon="15.737226">
				<ele>430.000000</ele>
			</trkpt>
			<trkpt lat="49.733883" lon="15.737442">
				<ele>430.000000</ele>
			</trkpt>
			<trkpt lat="49.733889" lon="15.737541">
				<ele>431.000000</ele>
			</trkpt>
			<trkpt lat="49.733889" lon="15.737631">
				<ele>431.000000</ele>
			</trkpt>
			<trkpt lat="49.733878" lon="15.737721">
				<ele>431.000000</ele>
			</trkpt>
			<trkpt lat="49.733860" lon="15.737810">
				<ele>432.000000</ele>
			</trkpt>
			<trkpt lat="49.733831" lon="15.737908">
				<ele>432.000000</ele>
			</trkpt>
			<trkpt lat="49.733796" lon="15.738008">
				<ele>433.000000</ele>
			</trkpt>
			<trkpt lat="49.733721" lon="15.738160">
				<ele>433.000000</ele>
			</trkpt>
			<trkpt lat="49.733477" lon="15.738600">
				<ele>436.000000</ele>
			</trkpt>
			<trkpt lat="49.733448" lon="15.738681">
				<ele>436.000000</ele>
			</trkpt>
			<trkpt lat="49.733430" lon="15.738780">
				<ele>436.000000</ele>
			</trkpt>
			<trkpt lat="49.733424" lon="15.738861">
				<ele>437.000000</ele>
			</trkpt>
			<trkpt lat="49.733430" lon="15.738960">
				<ele>437.000000</ele>
			</trkpt>
			<trkpt lat="49.733448" lon="15.739067">
				<ele>437.000000</ele>
			</trkpt>
			<trkpt lat="49.733483" lon="15.739193">
				<ele>438.000000</ele>
			</trkpt>
			<trkpt lat="49.733616" lon="15.739562">
				<ele>440.000000</ele>
			</trkpt>
			<trkpt lat="49.734121" lon="15.740910">
				<ele>446.000000</ele>
			</trkpt>
			<trkpt lat="49.734411" lon="15.741763">
				<ele>451.000000</ele>
			</trkpt>
			<trkpt lat="49.734568" lon="15.742248">
				<ele>452.000000</ele>
			</trkpt>
			<trkpt lat="49.734702" lon="15.742697">
				<ele>452.000000</ele>
			</trkpt>
			<trkpt lat="49.734806" lon="15.743119">
				<ele>453.000000</ele>
			</trkpt>
			<trkpt lat="49.734911" lon="15.743550">
				<ele>454.000000</ele>
			</trkpt>
			<trkpt lat="49.735010" lon="15.744071">
				<ele>455.000000</ele>
			</trkpt>
			<trkpt lat="49.735126" lon="15.744898">
				<ele>455.000000</ele>
			</trkpt>
			<trkpt lat="49.735224" lon="15.745589">
				<ele>455.000000</ele>
			</trkpt>
			<trkpt lat="49.735248" lon="15.745921">
				<ele>455.000000</ele>
			</trkpt>
			<trkpt lat="49.735254" lon="15.746200">
				<ele>455.000000</ele>
			</trkpt>
			<trkpt lat="49.735236" lon="15.746407">
				<ele>455.000000</ele>
			</trkpt>
			<trkpt lat="49.735219" lon="15.746524">
				<ele>455.000000</ele>
			</trkpt>
			<trkpt lat="49.735201" lon="15.746587">
				<ele>455.000000</ele>
			</trkpt>
			<trkpt lat="49.735091" lon="15.746793">
				<ele>455.000000</ele>
			</trkpt>
			<trkpt lat="49.734946" lon="15.746990">
				<ele>455.000000</ele>
			</trkpt>
			<trkpt lat="49.734864" lon="15.747099">
				<ele>455.000000</ele>
			</trkpt>
			<trkpt lat="49.734348" lon="15.747782">
				<ele>455.000000</ele>
			</trkpt>
			<trkpt lat="49.734110" lon="15.748087">
				<ele>455.000000</ele>
			</trkpt>
			<trkpt lat="49.733726" lon="15.748608">
				<ele>455.000000</ele>
			</trkpt>
			<trkpt lat="49.733192" lon="15.749336">
				<ele>455.000000</ele>
			</trkpt>
			<trkpt lat="49.732722" lon="15.749982">
				<ele>455.000000</ele>
			</trkpt>
			<trkpt lat="49.732548" lon="15.750198">
				<ele>455.000000</ele>
			</trkpt>
			<trkpt lat="49.732420" lon="15.750332">
				<ele>455.000000</ele>
			</trkpt>
			<trkpt lat="49.732275" lon="15.750476">
				<ele>455.000000</ele>
			</trkpt>
			<trkpt lat="49.732072" lon="15.750638">
				<ele>455.000000</ele>
			</trkpt>
			<trkpt lat="49.731781" lon="15.750881">
				<ele>456.000000</ele>
			</trkpt>
			<trkpt lat="49.731659" lon="15.750988">
				<ele>456.000000</ele>
			</trkpt>
			<trkpt lat="49.731555" lon="15.751114">
				<ele>456.000000</ele>
			</trkpt>
			<trkpt lat="49.731456" lon="15.751240">
				<ele>456.000000</ele>
			</trkpt>
			<trkpt lat="49.731334" lon="15.751401">
				<ele>456.000000</ele>
			</trkpt>
			<trkpt lat="49.731108" lon="15.751770">
				<ele>457.000000</ele>
			</trkpt>
			<trkpt lat="49.730556" lon="15.752732">
				<ele>457.000000</ele>
			</trkpt>
			<trkpt lat="49.730161" lon="15.753369">
				<ele>458.000000</ele>
			</trkpt>
			<trkpt lat="49.729970" lon="15.753684">
				<ele>458.000000</ele>
			</trkpt>
			<trkpt lat="49.729819" lon="15.753998">
				<ele>458.000000</ele>
			</trkpt>
			<trkpt lat="49.729679" lon="15.754330">
				<ele>458.000000</ele>
			</trkpt>
			<trkpt lat="49.729488" lon="15.754869">
				<ele>459.000000</ele>
			</trkpt>
			<trkpt lat="49.729459" lon="15.754969">
				<ele>459.000000</ele>
			</trkpt>
			<trkpt lat="49.729412" lon="15.755066">
				<ele>459.000000</ele>
			</trkpt>
			<trkpt lat="49.729365" lon="15.755147">
				<ele>459.000000</ele>
			</trkpt>
			<trkpt lat="49.729313" lon="15.755210">
				<ele>459.000000</ele>
			</trkpt>
			<trkpt lat="49.729186" lon="15.755309">
				<ele>459.000000</ele>
			</trkpt>
			<trkpt lat="49.728988" lon="15.755416">
				<ele>459.000000</ele>
			</trkpt>
			<trkpt lat="49.728791" lon="15.755543">
				<ele>459.000000</ele>
			</trkpt>
			<trkpt lat="49.728594" lon="15.755678">
				<ele>460.000000</ele>
			</trkpt>
			<trkpt lat="49.728129" lon="15.756055">
				<ele>460.000000</ele>
			</trkpt>
			<trkpt lat="49.727850" lon="15.756271">
				<ele>462.000000</ele>
			</trkpt>
			<trkpt lat="49.727670" lon="15.756441">
				<ele>463.000000</ele>
			</trkpt>
			<trkpt lat="49.727507" lon="15.756630">
				<ele>465.000000</ele>
			</trkpt>
			<trkpt lat="49.727333" lon="15.756845">
				<ele>465.000000</ele>
			</trkpt>
			<trkpt lat="49.727112" lon="15.757177">
				<ele>465.000000</ele>
			</trkpt>
			<trkpt lat="49.727031" lon="15.757313">
				<ele>465.000000</ele>
			</trkpt>
			<trkpt lat="49.726979" lon="15.757439">
				<ele>465.000000</ele>
			</trkpt>
			<trkpt lat="49.726927" lon="15.757564">
				<ele>465.000000</ele>
			</trkpt>
			<trkpt lat="49.726869" lon="15.757716">
				<ele>465.000000</ele>
			</trkpt>
			<trkpt lat="49.726787" lon="15.758032">
				<ele>465.000000</ele>
			</trkpt>
			<trkpt lat="49.726724" lon="15.758355">
				<ele>465.000000</ele>
			</trkpt>
			<trkpt lat="49.726631" lon="15.758848">
				<ele>465.000000</ele>
			</trkpt>
			<trkpt lat="49.726584" lon="15.759019">
				<ele>465.000000</ele>
			</trkpt>
			<trkpt lat="49.726526" lon="15.759163">
				<ele>465.000000</ele>
			</trkpt>
			<trkpt lat="49.726462" lon="15.759280">
				<ele>465.000000</ele>
			</trkpt>
			<trkpt lat="49.726381" lon="15.759370">
				<ele>465.000000</ele>
			</trkpt>
			<trkpt lat="49.726294" lon="15.759450">
				<ele>465.000000</ele>
			</trkpt>
			<trkpt lat="49.726172" lon="15.759523">
				<ele>465.000000</ele>
			</trkpt>
			<trkpt lat="49.725725" lon="15.759747">
				<ele>465.000000</ele>
			</trkpt>
			<trkpt lat="49.725521" lon="15.759854">
				<ele>465.000000</ele>
			</trkpt>
			<trkpt lat="49.725353" lon="15.759980">
				<ele>465.000000</ele>
			</trkpt>
			<trkpt lat="49.725196" lon="15.760133">
				<ele>465.000000</ele>
			</trkpt>
			<trkpt lat="49.725063" lon="15.760286">
				<ele>465.000000</ele>
			</trkpt>
			<trkpt lat="49.724929" lon="15.760456">
				<ele>465.000000</ele>
			</trkpt>
			<trkpt lat="49.724790" lon="15.760708">
				<ele>465.000000</ele>
			</trkpt>
			<trkpt lat="49.724650" lon="15.760969">
				<ele>465.000000</ele>
			</trkpt>
			<trkpt lat="49.724505" lon="15.761282">
				<ele>465.000000</ele>
			</trkpt>
			<trkpt lat="49.724372" lon="15.761607">
				<ele>465.000000</ele>
			</trkpt>
			<trkpt lat="49.724250" lon="15.761848">
				<ele>465.000000</ele>
			</trkpt>
			<trkpt lat="49.724116" lon="15.762074">
				<ele>465.000000</ele>
			</trkpt>
			<trkpt lat="49.723953" lon="15.762334">
				<ele>465.000000</ele>
			</trkpt>
			<trkpt lat="49.723797" lon="15.762594">
				<ele>465.000000</ele>
			</trkpt>
			<trkpt lat="49.723669" lon="15.762856">
				<ele>465.000000</ele>
			</trkpt>
			<trkpt lat="49.723471" lon="15.763269">
				<ele>465.000000</ele>
			</trkpt>
			<trkpt lat="49.723361" lon="15.763475">
				<ele>465.000000</ele>
			</trkpt>
			<trkpt lat="49.723176" lon="15.763808">
				<ele>464.000000</ele>
			</trkpt>
			<trkpt lat="49.723042" lon="15.764068">
				<ele>464.000000</ele>
			</trkpt>
			<trkpt lat="49.722949" lon="15.764301">
				<ele>464.000000</ele>
			</trkpt>
			<trkpt lat="49.722850" lon="15.764588">
				<ele>463.000000</ele>
			</trkpt>
			<trkpt lat="49.722722" lon="15.764975">
				<ele>463.000000</ele>
			</trkpt>
			<trkpt lat="49.722583" lon="15.765487">
				<ele>462.000000</ele>
			</trkpt>
			<trkpt lat="49.722415" lon="15.766072">
				<ele>461.000000</ele>
			</trkpt>
			<trkpt lat="49.721822" lon="15.767859">
				<ele>460.000000</ele>
			</trkpt>
			<trkpt lat="49.721653" lon="15.768416">
				<ele>460.000000</ele>
			</trkpt>
			<trkpt lat="49.721555" lon="15.768659">
				<ele>461.000000</ele>
			</trkpt>
			<trkpt lat="49.721445" lon="15.768909">
				<ele>461.000000</ele>
			</trkpt>
			<trkpt lat="49.721299" lon="15.769161">
				<ele>461.000000</ele>
			</trkpt>
			<trkpt lat="49.721090" lon="15.769475">
				<ele>462.000000</ele>
			</trkpt>
			<trkpt lat="49.721026" lon="15.769584">
				<ele>462.000000</ele>
			</trkpt>
			<trkpt lat="49.720963" lon="15.769709">
				<ele>462.000000</ele>
			</trkpt>
			<trkpt lat="49.720904" lon="15.769861">
				<ele>462.000000</ele>
			</trkpt>
			<trkpt lat="49.720870" lon="15.770014">
				<ele>462.000000</ele>
			</trkpt>
			<trkpt lat="49.720852" lon="15.770150">
				<ele>462.000000</ele>
			</trkpt>
			<trkpt lat="49.720829" lon="15.770311">
				<ele>463.000000</ele>
			</trkpt>
			<trkpt lat="49.720800" lon="15.771012">
				<ele>463.000000</ele>
			</trkpt>
			<trkpt lat="49.720771" lon="15.771605">
				<ele>464.000000</ele>
			</trkpt>
			<trkpt lat="49.720760" lon="15.771892">
				<ele>464.000000</ele>
			</trkpt>
			<trkpt lat="49.720754" lon="15.772144">
				<ele>464.000000</ele>
			</trkpt>
			<trkpt lat="49.720782" lon="15.772387">
				<ele>465.000000</ele>
			</trkpt>
			<trkpt lat="49.720835" lon="15.772953">
				<ele>465.000000</ele>
			</trkpt>
			<trkpt lat="49.720829" lon="15.772953">
				<ele>465.000000</ele>
			</trkpt>
			<trkpt lat="49.720829" lon="15.772953">
				<ele>465.000000</ele>
			</trkpt>
			<trkpt lat="49.720730" lon="15.772934">
				<ele>465.000000</ele>
			</trkpt>
			<trkpt lat="49.720428" lon="15.772871">
				<ele>465.000000</ele>
			</trkpt>
			<trkpt lat="49.720318" lon="15.772871">
				<ele>464.000000</ele>
			</trkpt>
			<trkpt lat="49.720214" lon="15.772871">
				<ele>464.000000</ele>
			</trkpt>
			<trkpt lat="49.720138" lon="15.772898">
				<ele>464.000000</ele>
			</trkpt>
			<trkpt lat="49.720068" lon="15.772925">
				<ele>464.000000</ele>
			</trkpt>
			<trkpt lat="49.719940" lon="15.772997">
				<ele>464.000000</ele>
			</trkpt>
			<trkpt lat="49.719778" lon="15.773132">
				<ele>464.000000</ele>
			</trkpt>
			<trkpt lat="49.719644" lon="15.773222">
				<ele>464.000000</ele>
			</trkpt>
			<trkpt lat="49.719505" lon="15.773293">
				<ele>463.000000</ele>
			</trkpt>
			<trkpt lat="49.719354" lon="15.773320">
				<ele>463.000000</ele>
			</trkpt>
			<trkpt lat="49.719156" lon="15.773339">
				<ele>463.000000</ele>
			</trkpt>
			<trkpt lat="49.719104" lon="15.773339">
				<ele>463.000000</ele>
			</trkpt>
			<trkpt lat="49.719040" lon="15.773311">
				<ele>463.000000</ele>
			</trkpt>
			<trkpt lat="49.718988" lon="15.773257">
				<ele>463.000000</ele>
			</trkpt>
			<trkpt lat="49.718924" lon="15.773186">
				<ele>463.000000</ele>
			</trkpt>
			<trkpt lat="49.718860" lon="15.773087">
				<ele>463.000000</ele>
			</trkpt>
			<trkpt lat="49.718727" lon="15.772890">
				<ele>462.000000</ele>
			</trkpt>
			<trkpt lat="49.718523" lon="15.772664">
				<ele>462.000000</ele>
			</trkpt>
			<trkpt lat="49.718431" lon="15.772674">
				<ele>463.000000</ele>
			</trkpt>
			<trkpt lat="49.718332" lon="15.772727">
				<ele>463.000000</ele>
			</trkpt>
			<trkpt lat="49.718233" lon="15.772781">
				<ele>464.000000</ele>
			</trkpt>
			<trkpt lat="49.718163" lon="15.772853">
				<ele>465.000000</ele>
			</trkpt>
			<trkpt lat="49.717896" lon="15.773159">
				<ele>467.000000</ele>
			</trkpt>
			<trkpt lat="49.717484" lon="15.773662">
				<ele>470.000000</ele>
			</trkpt>
			<trkpt lat="49.717402" lon="15.773743">
				<ele>471.000000</ele>
			</trkpt>
			<trkpt lat="49.717292" lon="15.773815">
				<ele>471.000000</ele>
			</trkpt>
			<trkpt lat="49.717159" lon="15.773850">
				<ele>472.000000</ele>
			</trkpt>
			<trkpt lat="49.716978" lon="15.773905">
				<ele>473.000000</ele>
			</trkpt>
			<trkpt lat="49.716787" lon="15.773940">
				<ele>474.000000</ele>
			</trkpt>
			<trkpt lat="49.716624" lon="15.773995">
				<ele>475.000000</ele>
			</trkpt>
			<trkpt lat="49.716461" lon="15.774075">
				<ele>476.000000</ele>
			</trkpt>
			<trkpt lat="49.716188" lon="15.774209">
				<ele>478.000000</ele>
			</trkpt>
			<trkpt lat="49.715451" lon="15.774569">
				<ele>481.000000</ele>
			</trkpt>
			<trkpt lat="49.715219" lon="15.774668">
				<ele>481.000000</ele>
			</trkpt>
			<trkpt lat="49.714975" lon="15.774731">
				<ele>482.000000</ele>
			</trkpt>
			<trkpt lat="49.713424" lon="15.775162">
				<ele>484.000000</ele>
			</trkpt>
			<trkpt lat="49.713191" lon="15.775243">
				<ele>485.000000</ele>
			</trkpt>
			<trkpt lat="49.712953" lon="15.775351">
				<ele>485.000000</ele>
			</trkpt>
			<trkpt lat="49.712628" lon="15.775530">
				<ele>487.000000</ele>
			</trkpt>
			<trkpt lat="49.712366" lon="15.775674">
				<ele>488.000000</ele>
			</trkpt>
			<trkpt lat="49.711971" lon="15.775890">
				<ele>490.000000</ele>
			</trkpt>
			<trkpt lat="49.711727" lon="15.776043">
				<ele>492.000000</ele>
			</trkpt>
			<trkpt lat="49.711303" lon="15.776312">
				<ele>495.000000</ele>
			</trkpt>
			<trkpt lat="49.711257" lon="15.776312">
				<ele>496.000000</ele>
			</trkpt>
			<trkpt lat="49.711210" lon="15.776276">
				<ele>496.000000</ele>
			</trkpt>
			<trkpt lat="49.711094" lon="15.776177">
				<ele>497.000000</ele>
			</trkpt>
			<trkpt lat="49.711042" lon="15.776141">
				<ele>498.000000</ele>
			</trkpt>
			<trkpt lat="49.710996" lon="15.776123">
				<ele>498.000000</ele>
			</trkpt>
			<trkpt lat="49.710955" lon="15.776114">
				<ele>498.000000</ele>
			</trkpt>
			<trkpt lat="49.710891" lon="15.776123">
				<ele>499.000000</ele>
			</trkpt>
			<trkpt lat="49.710810" lon="15.776150">
				<ele>499.000000</ele>
			</trkpt>
			<trkpt lat="49.710728" lon="15.776159">
				<ele>500.000000</ele>
			</trkpt>
			<trkpt lat="49.710485" lon="15.776169">
				<ele>504.000000</ele>
			</trkpt>
			<trkpt lat="49.710386" lon="15.776169">
				<ele>506.000000</ele>
			</trkpt>
			<trkpt lat="49.710241" lon="15.776141">
				<ele>508.000000</ele>
			</trkpt>
			<trkpt lat="49.710176" lon="15.776123">
				<ele>509.000000</ele>
			</trkpt>
			<trkpt lat="49.710072" lon="15.776043">
				<ele>511.000000</ele>
			</trkpt>
			<trkpt lat="49.710037" lon="15.776024">
				<ele>512.000000</ele>
			</trkpt>
			<trkpt lat="49.710003" lon="15.776043">
				<ele>513.000000</ele>
			</trkpt>
			<trkpt lat="49.709921" lon="15.776051">
				<ele>514.000000</ele>
			</trkpt>
			<trkpt lat="49.709811" lon="15.776033">
				<ele>516.000000</ele>
			</trkpt>
			<trkpt lat="49.709764" lon="15.776024">
				<ele>517.000000</ele>
			</trkpt>
			<trkpt lat="49.709729" lon="15.775997">
				<ele>517.000000</ele>
			</trkpt>
			<trkpt lat="49.709613" lon="15.775836">
				<ele>520.000000</ele>
			</trkpt>
			<trkpt lat="49.709561" lon="15.775800">
				<ele>521.000000</ele>
			</trkpt>
			<trkpt lat="49.709497" lon="15.775764">
				<ele>522.000000</ele>
			</trkpt>
			<trkpt lat="49.709433" lon="15.775754">
				<ele>522.000000</ele>
			</trkpt>
			<trkpt lat="49.709294" lon="15.775764">
				<ele>524.000000</ele>
			</trkpt>
			<trkpt lat="49.709172" lon="15.775800">
				<ele>525.000000</ele>
			</trkpt>
			<trkpt lat="49.709113" lon="15.775800">
				<ele>526.000000</ele>
			</trkpt>
			<trkpt lat="49.709038" lon="15.775800">
				<ele>527.000000</ele>
			</trkpt>
			<trkpt lat="49.709003" lon="15.775800">
				<ele>527.000000</ele>
			</trkpt>
			<trkpt lat="49.708969" lon="15.775773">
				<ele>528.000000</ele>
			</trkpt>
			<trkpt lat="49.708934" lon="15.775727">
				<ele>529.000000</ele>
			</trkpt>
			<trkpt lat="49.708835" lon="15.775567">
				<ele>530.000000</ele>
			</trkpt>
			<trkpt lat="49.708817" lon="15.775530">
				<ele>531.000000</ele>
			</trkpt>
			<trkpt lat="49.708800" lon="15.775467">
				<ele>532.000000</ele>
			</trkpt>
			<trkpt lat="49.708684" lon="15.775072">
				<ele>538.000000</ele>
			</trkpt>
			<trkpt lat="49.708550" lon="15.774614">
				<ele>548.000000</ele>
			</trkpt>
			<trkpt lat="49.708515" lon="15.774506">
				<ele>550.000000</ele>
			</trkpt>
			<trkpt lat="49.708480" lon="15.774408">
				<ele>551.000000</ele>
			</trkpt>
			<trkpt lat="49.708440" lon="15.774335">
				<ele>552.000000</ele>
			</trkpt>
			<trkpt lat="49.708376" lon="15.774255">
				<ele>553.000000</ele>
			</trkpt>
			<trkpt lat="49.708306" lon="15.774192">
				<ele>553.000000</ele>
			</trkpt>
			<trkpt lat="49.708225" lon="15.774138">
				<ele>554.000000</ele>
			</trkpt>
			<trkpt lat="49.707963" lon="15.774012">
				<ele>558.000000</ele>
			</trkpt>
			<trkpt lat="49.707092" lon="15.773563">
				<ele>571.000000</ele>
			</trkpt>
			<trkpt lat="49.706726" lon="15.773393">
				<ele>576.000000</ele>
			</trkpt>
			<trkpt lat="49.706673" lon="15.773267">
				<ele>578.000000</ele>
			</trkpt>
			<trkpt lat="49.706592" lon="15.773159">
				<ele>579.000000</ele>
			</trkpt>
			<trkpt lat="49.706488" lon="15.773060">
				<ele>581.000000</ele>
			</trkpt>
			<trkpt lat="49.706308" lon="15.772917">
				<ele>585.000000</ele>
			</trkpt>
			<trkpt lat="49.706197" lon="15.772863">
				<ele>586.000000</ele>
			</trkpt>
			<trkpt lat="49.706151" lon="15.772844">
				<ele>586.000000</ele>
			</trkpt>
			<trkpt lat="49.706116" lon="15.772853">
				<ele>586.000000</ele>
			</trkpt>
			<trkpt lat="49.706046" lon="15.772907">
				<ele>586.000000</ele>
			</trkpt>
			<trkpt lat="49.705982" lon="15.772934">
				<ele>586.000000</ele>
			</trkpt>
			<trkpt lat="49.705709" lon="15.773006">
				<ele>587.000000</ele>
			</trkpt>
			<trkpt lat="49.705721" lon="15.772907">
				<ele>588.000000</ele>
			</trkpt>
			<trkpt lat="49.705715" lon="15.772827">
				<ele>588.000000</ele>
			</trkpt>
			<trkpt lat="49.705698" lon="15.772737">
				<ele>588.000000</ele>
			</trkpt>
			<trkpt lat="49.705663" lon="15.772638">
				<ele>588.000000</ele>
			</trkpt>
			<trkpt lat="49.705617" lon="15.772575">
				<ele>588.000000</ele>
			</trkpt>
			<trkpt lat="49.705570" lon="15.772485">
				<ele>589.000000</ele>
			</trkpt>
			<trkpt lat="49.705372" lon="15.772278">
				<ele>589.000000</ele>
			</trkpt>
			<trkpt lat="49.705239" lon="15.772108">
				<ele>590.000000</ele>
			</trkpt>
			<trkpt lat="49.705117" lon="15.771938">
				<ele>590.000000</ele>
			</trkpt>
			<trkpt lat="49.705012" lon="15.771758">
				<ele>590.000000</ele>
			</trkpt>
			<trkpt lat="49.704913" lon="15.771586">
				<ele>590.000000</ele>
			</trkpt>
			<trkpt lat="49.704762" lon="15.771272">
				<ele>590.000000</ele>
			</trkpt>
			<trkpt lat="49.704379" lon="15.770356">
				<ele>590.000000</ele>
			</trkpt>
			<trkpt lat="49.704304" lon="15.770185">
				<ele>590.000000</ele>
			</trkpt>
			<trkpt lat="49.704304" lon="15.770185">
				<ele>590.000000</ele>
			</trkpt>
			<trkpt lat="49.704274" lon="15.770114">
				<ele>590.000000</ele>
			</trkpt>
			<trkpt lat="49.704239" lon="15.769970">
				<ele>590.000000</ele>
			</trkpt>
			<trkpt lat="49.704204" lon="15.769835">
				<ele>590.000000</ele>
			</trkpt>
			<trkpt lat="49.704106" lon="15.769261">
				<ele>588.000000</ele>
			</trkpt>
			<trkpt lat="49.704082" lon="15.769161">
				<ele>587.000000</ele>
			</trkpt>
			<trkpt lat="49.704053" lon="15.769089">
				<ele>587.000000</ele>
			</trkpt>
			<trkpt lat="49.704013" lon="15.769026">
				<ele>586.000000</ele>
			</trkpt>
			<trkpt lat="49.703920" lon="15.768936">
				<ele>585.000000</ele>
			</trkpt>
			<trkpt lat="49.703803" lon="15.768838">
				<ele>584.000000</ele>
			</trkpt>
			<trkpt lat="49.703682" lon="15.768785">
				<ele>582.000000</ele>
			</trkpt>
			<trkpt lat="49.703548" lon="15.768766">
				<ele>581.000000</ele>
			</trkpt>
			<trkpt lat="49.703292" lon="15.768775">
				<ele>578.000000</ele>
			</trkpt>
			<trkpt lat="49.703095" lon="15.768775">
				<ele>576.000000</ele>
			</trkpt>
			<trkpt lat="49.702700" lon="15.768739">
				<ele>571.000000</ele>
			</trkpt>
			<trkpt lat="49.702584" lon="15.768712">
				<ele>570.000000</ele>
			</trkpt>
			<trkpt lat="49.702490" lon="15.768676">
				<ele>570.000000</ele>
			</trkpt>
			<trkpt lat="49.702456" lon="15.768640">
				<ele>569.000000</ele>
			</trkpt>
			<trkpt lat="49.702421" lon="15.768595">
				<ele>569.000000</ele>
			</trkpt>
			<trkpt lat="49.702380" lon="15.768496">
				<ele>569.000000</ele>
			</trkpt>
			<trkpt lat="49.702165" lon="15.767777">
				<ele>566.000000</ele>
			</trkpt>
			<trkpt lat="49.702020" lon="15.767131">
				<ele>564.000000</ele>
			</trkpt>
			<trkpt lat="49.701863" lon="15.767643">
				<ele>565.000000</ele>
			</trkpt>
			<trkpt lat="49.701753" lon="15.768056">
				<ele>565.000000</ele>
			</trkpt>
			<trkpt lat="49.701735" lon="15.768110">
				<ele>565.000000</ele>
			</trkpt>
			<trkpt lat="49.701707" lon="15.768156">
				<ele>564.000000</ele>
			</trkpt>
			<trkpt lat="49.701689" lon="15.768182">
				<ele>564.000000</ele>
			</trkpt>
			<trkpt lat="49.701654" lon="15.768190">
				<ele>564.000000</ele>
			</trkpt>
			<trkpt lat="49.701613" lon="15.768209">
				<ele>564.000000</ele>
			</trkpt>
			<trkpt lat="49.701561" lon="15.768190">
				<ele>563.000000</ele>
			</trkpt>
			<trkpt lat="49.701462" lon="15.768137">
				<ele>562.000000</ele>
			</trkpt>
			<trkpt lat="49.701398" lon="15.768299">
				<ele>562.000000</ele>
			</trkpt>
			<trkpt lat="49.701050" lon="15.768173">
				<ele>560.000000</ele>
			</trkpt>
			<trkpt lat="49.701009" lon="15.768398">
				<ele>560.000000</ele>
			</trkpt>
			<trkpt lat="49.701009" lon="15.768416">
				<ele>560.000000</ele>
			</trkpt>
		</trkseg>
	</trk>
</gpx>

