<?xml version="1.0" encoding="utf-8"?>
<gpx xmlns="http://www.topografix.com/GPX/1/1" version="1.1" creator="https://mapy.com/">
	<trk>
		<name>Trasa z 49.701039N, 15.768406E do 49.701060N, 15.768431E</name>
		<trkseg>
			<trkpt lat="49.701009" lon="15.768398">
				<ele>560.000000</ele>
			</trkpt>
			<trkpt lat="49.701009" lon="15.768398">
				<ele>560.000000</ele>
			</trkpt>
			<trkpt lat="49.700794" lon="15.768137">
				<ele>560.000000</ele>
			</trkpt>
			<trkpt lat="49.700689" lon="15.768003">
				<ele>559.000000</ele>
			</trkpt>
			<trkpt lat="49.700637" lon="15.767877">
				<ele>559.000000</ele>
			</trkpt>
			<trkpt lat="49.700567" lon="15.767751">
				<ele>559.000000</ele>
			</trkpt>
			<trkpt lat="49.700492" lon="15.767661">
				<ele>559.000000</ele>
			</trkpt>
			<trkpt lat="49.700225" lon="15.767481">
				<ele>558.000000</ele>
			</trkpt>
			<trkpt lat="49.700021" lon="15.767364">
				<ele>558.000000</ele>
			</trkpt>
			<trkpt lat="49.699911" lon="15.767311">
				<ele>558.000000</ele>
			</trkpt>
			<trkpt lat="49.699847" lon="15.767238">
				<ele>558.000000</ele>
			</trkpt>
			<trkpt lat="49.699830" lon="15.767194">
				<ele>558.000000</ele>
			</trkpt>
			<trkpt lat="49.699812" lon="15.767122">
				<ele>558.000000</ele>
			</trkpt>
			<trkpt lat="49.699777" lon="15.766942">
				<ele>557.000000</ele>
			</trkpt>
			<trkpt lat="49.699742" lon="15.766817">
				<ele>557.000000</ele>
			</trkpt>
			<trkpt lat="49.699690" lon="15.766682">
				<ele>557.000000</ele>
			</trkpt>
			<trkpt lat="49.699603" lon="15.766709">
				<ele>557.000000</ele>
			</trkpt>
			<trkpt lat="49.699464" lon="15.766709">
				<ele>557.000000</ele>
			</trkpt>
			<trkpt lat="49.699388" lon="15.766701">
				<ele>557.000000</ele>
			</trkpt>
			<trkpt lat="49.699313" lon="15.766718">
				<ele>557.000000</ele>
			</trkpt>
			<trkpt lat="49.699260" lon="15.766754">
				<ele>557.000000</ele>
			</trkpt>
			<trkpt lat="49.699202" lon="15.766798">
				<ele>557.000000</ele>
			</trkpt>
			<trkpt lat="49.699208" lon="15.766691">
				<ele>558.000000</ele>
			</trkpt>
			<trkpt lat="49.699214" lon="15.766565">
				<ele>558.000000</ele>
			</trkpt>
			<trkpt lat="49.699237" lon="15.766368">
				<ele>558.000000</ele>
			</trkpt>
			<trkpt lat="49.699237" lon="15.766143">
				<ele>559.000000</ele>
			</trkpt>
			<trkpt lat="49.699248" lon="15.765900">
				<ele>558.000000</ele>
			</trkpt>
			<trkpt lat="49.699266" lon="15.765720">
				<ele>557.000000</ele>
			</trkpt>
			<trkpt lat="49.699248" lon="15.765676">
				<ele>557.000000</ele>
			</trkpt>
			<trkpt lat="49.699231" lon="15.765603">
				<ele>557.000000</ele>
			</trkpt>
			<trkpt lat="49.699202" lon="15.765424">
				<ele>557.000000</ele>
			</trkpt>
			<trkpt lat="49.699191" lon="15.764940">
				<ele>557.000000</ele>
			</trkpt>
			<trkpt lat="49.699179" lon="15.764229">
				<ele>557.000000</ele>
			</trkpt>
			<trkpt lat="49.699138" lon="15.763106">
				<ele>557.000000</ele>
			</trkpt>
			<trkpt lat="49.699138" lon="15.763026">
				<ele>557.000000</ele>
			</trkpt>
			<trkpt lat="49.699115" lon="15.762927">
				<ele>557.000000</ele>
			</trkpt>
			<trkpt lat="49.699069" lon="15.762793">
				<ele>557.000000</ele>
			</trkpt>
			<trkpt lat="49.698709" lon="15.761867">
				<ele>557.000000</ele>
			</trkpt>
			<trkpt lat="49.698609" lon="15.761661">
				<ele>557.000000</ele>
			</trkpt>
			<trkpt lat="49.698528" lon="15.761489">
				<ele>557.000000</ele>
			</trkpt>
			<trkpt lat="49.698487" lon="15.761337">
				<ele>559.000000</ele>
			</trkpt>
			<trkpt lat="49.698470" lon="15.761166">
				<ele>556.000000</ele>
			</trkpt>
			<trkpt lat="49.698470" lon="15.761032">
				<ele>554.000000</ele>
			</trkpt>
			<trkpt lat="49.698499" lon="15.760619">
				<ele>549.000000</ele>
			</trkpt>
			<trkpt lat="49.698517" lon="15.760447">
				<ele>548.000000</ele>
			</trkpt>
			<trkpt lat="49.698534" lon="15.760385">
				<ele>548.000000</ele>
			</trkpt>
			<trkpt lat="49.698574" lon="15.760313">
				<ele>547.000000</ele>
			</trkpt>
			<trkpt lat="49.698818" lon="15.759819">
				<ele>544.000000</ele>
			</trkpt>
			<trkpt lat="49.698755" lon="15.759674">
				<ele>544.000000</ele>
			</trkpt>
			<trkpt lat="49.698731" lon="15.759621">
				<ele>544.000000</ele>
			</trkpt>
			<trkpt lat="49.698615" lon="15.759603">
				<ele>542.000000</ele>
			</trkpt>
			<trkpt lat="49.698540" lon="15.759603">
				<ele>541.000000</ele>
			</trkpt>
			<trkpt lat="49.698476" lon="15.759630">
				<ele>539.000000</ele>
			</trkpt>
			<trkpt lat="49.698417" lon="15.759684">
				<ele>538.000000</ele>
			</trkpt>
			<trkpt lat="49.698389" lon="15.759703">
				<ele>537.000000</ele>
			</trkpt>
			<trkpt lat="49.698360" lon="15.759711">
				<ele>537.000000</ele>
			</trkpt>
			<trkpt lat="49.698325" lon="15.759703">
				<ele>536.000000</ele>
			</trkpt>
			<trkpt lat="49.698290" lon="15.759684">
				<ele>535.000000</ele>
			</trkpt>
			<trkpt lat="49.698301" lon="15.759504">
				<ele>535.000000</ele>
			</trkpt>
			<trkpt lat="49.698273" lon="15.759244">
				<ele>535.000000</ele>
			</trkpt>
			<trkpt lat="49.698238" lon="15.758894">
				<ele>535.000000</ele>
			</trkpt>
			<trkpt lat="49.698214" lon="15.758632">
				<ele>535.000000</ele>
			</trkpt>
			<trkpt lat="49.698197" lon="15.758363">
				<ele>535.000000</ele>
			</trkpt>
			<trkpt lat="49.698075" lon="15.758372">
				<ele>535.000000</ele>
			</trkpt>
			<trkpt lat="49.697854" lon="15.758426">
				<ele>535.000000</ele>
			</trkpt>
			<trkpt lat="49.697756" lon="15.758445">
				<ele>535.000000</ele>
			</trkpt>
			<trkpt lat="49.697715" lon="15.758426">
				<ele>535.000000</ele>
			</trkpt>
			<trkpt lat="49.697668" lon="15.758408">
				<ele>535.000000</ele>
			</trkpt>
			<trkpt lat="49.697634" lon="15.758372">
				<ele>535.000000</ele>
			</trkpt>
			<trkpt lat="49.697599" lon="15.758345">
				<ele>535.000000</ele>
			</trkpt>
			<trkpt lat="49.697569" lon="15.758282">
				<ele>535.000000</ele>
			</trkpt>
			<trkpt lat="49.697546" lon="15.758219">
				<ele>535.000000</ele>
			</trkpt>
			<trkpt lat="49.697523" lon="15.758148">
				<ele>535.000000</ele>
			</trkpt>
			<trkpt lat="49.697517" lon="15.758066">
				<ele>535.000000</ele>
			</trkpt>
			<trkpt lat="49.697517" lon="15.757969">
				<ele>535.000000</ele>
			</trkpt>
			<trkpt lat="49.697517" lon="15.757869">
				<ele>535.000000</ele>
			</trkpt>
			<trkpt lat="49.697534" lon="15.757770">
				<ele>535.000000</ele>
			</trkpt>
			<trkpt lat="49.697558" lon="15.757672">
				<ele>535.000000</ele>
			</trkpt>
			<trkpt lat="49.697628" lon="15.757529">
				<ele>535.000000</ele>
			</trkpt>
			<trkpt lat="49.697756" lon="15.757321">
				<ele>535.000000</ele>
			</trkpt>
			<trkpt lat="49.697791" lon="15.757231">
				<ele>535.000000</ele>
			</trkpt>
			<trkpt lat="49.697813" lon="15.757151">
				<ele>535.000000</ele>
			</trkpt>
			<trkpt lat="49.697813" lon="15.757070">
				<ele>535.000000</ele>
			</trkpt>
			<trkpt lat="49.697784" lon="15.756963">
				<ele>535.000000</ele>
			</trkpt>
			<trkpt lat="49.697761" lon="15.756890">
				<ele>535.000000</ele>
			</trkpt>
			<trkpt lat="49.697703" lon="15.756791">
				<ele>535.000000</ele>
			</trkpt>
			<trkpt lat="49.697680" lon="15.756747">
				<ele>535.000000</ele>
			</trkpt>
			<trkpt lat="49.697599" lon="15.756611">
				<ele>535.000000</ele>
			</trkpt>
			<trkpt lat="49.697529" lon="15.756495">
				<ele>535.000000</ele>
			</trkpt>
			<trkpt lat="49.697401" lon="15.756342">
				<ele>535.000000</ele>
			</trkpt>
			<trkpt lat="49.697111" lon="15.756028">
				<ele>535.000000</ele>
			</trkpt>
			<trkpt lat="49.696779" lon="15.755651">
				<ele>535.000000</ele>
			</trkpt>
			<trkpt lat="49.696680" lon="15.755569">
				<ele>535.000000</ele>
			</trkpt>
			<trkpt lat="49.696570" lon="15.755479">
				<ele>535.000000</ele>
			</trkpt>
			<trkpt lat="49.696390" lon="15.755372">
				<ele>535.000000</ele>
			</trkpt>
			<trkpt lat="49.696221" lon="15.755273">
				<ele>535.000000</ele>
			</trkpt>
			<trkpt lat="49.696036" lon="15.755183">
				<ele>535.000000</ele>
			</trkpt>
			<trkpt lat="49.695844" lon="15.755112">
				<ele>535.000000</ele>
			</trkpt>
			<trkpt lat="49.695867" lon="15.754959">
				<ele>535.000000</ele>
			</trkpt>
			<trkpt lat="49.695884" lon="15.754824">
				<ele>535.000000</ele>
			</trkpt>
			<trkpt lat="49.695919" lon="15.754699">
				<ele>535.000000</ele>
			</trkpt>
			<trkpt lat="49.695960" lon="15.754581">
				<ele>535.000000</ele>
			</trkpt>
			<trkpt lat="49.696041" lon="15.754374">
				<ele>535.000000</ele>
			</trkpt>
			<trkpt lat="49.696274" lon="15.753898">
				<ele>535.000000</ele>
			</trkpt>
			<trkpt lat="49.696337" lon="15.753747">
				<ele>535.000000</ele>
			</trkpt>
			<trkpt lat="49.696384" lon="15.753611">
				<ele>535.000000</ele>
			</trkpt>
			<trkpt lat="49.696472" lon="15.753306">
				<ele>535.000000</ele>
			</trkpt>
			<trkpt lat="49.696553" lon="15.752866">
				<ele>535.000000</ele>
			</trkpt>
			<trkpt lat="49.696582" lon="15.752669">
				<ele>535.000000</ele>
			</trkpt>
			<trkpt lat="49.696576" lon="15.752497">
				<ele>535.000000</ele>
			</trkpt>
			<trkpt lat="49.696559" lon="15.752309">
				<ele>535.000000</ele>
			</trkpt>
			<trkpt lat="49.696477" lon="15.751950">
				<ele>535.000000</ele>
			</trkpt>
			<trkpt lat="49.696454" lon="15.751779">
				<ele>535.000000</ele>
			</trkpt>
			<trkpt lat="49.696442" lon="15.751600">
				<ele>535.000000</ele>
			</trkpt>
			<trkpt lat="49.696454" lon="15.751401">
				<ele>535.000000</ele>
			</trkpt>
			<trkpt lat="49.696500" lon="15.751158">
				<ele>535.000000</ele>
			</trkpt>
			<trkpt lat="49.696559" lon="15.750917">
				<ele>535.000000</ele>
			</trkpt>
			<trkpt lat="49.696622" lon="15.750728">
				<ele>535.000000</ele>
			</trkpt>
			<trkpt lat="49.696814" lon="15.750233">
				<ele>536.000000</ele>
			</trkpt>
			<trkpt lat="49.696866" lon="15.750082">
				<ele>536.000000</ele>
			</trkpt>
			<trkpt lat="49.696913" lon="15.749902">
				<ele>536.000000</ele>
			</trkpt>
			<trkpt lat="49.696954" lon="15.749667">
				<ele>537.000000</ele>
			</trkpt>
			<trkpt lat="49.696989" lon="15.749191">
				<ele>537.000000</ele>
			</trkpt>
			<trkpt lat="49.697017" lon="15.749084">
				<ele>537.000000</ele>
			</trkpt>
			<trkpt lat="49.697046" lon="15.748958">
				<ele>537.000000</ele>
			</trkpt>
			<trkpt lat="49.697093" lon="15.748805">
				<ele>538.000000</ele>
			</trkpt>
			<trkpt lat="49.697145" lon="15.748680">
				<ele>538.000000</ele>
			</trkpt>
			<trkpt lat="49.697209" lon="15.748563">
				<ele>538.000000</ele>
			</trkpt>
			<trkpt lat="49.697302" lon="15.748411">
				<ele>538.000000</ele>
			</trkpt>
			<trkpt lat="49.697477" lon="15.748177">
				<ele>539.000000</ele>
			</trkpt>
			<trkpt lat="49.697773" lon="15.747845">
				<ele>539.000000</ele>
			</trkpt>
			<trkpt lat="49.697918" lon="15.747673">
				<ele>540.000000</ele>
			</trkpt>
			<trkpt lat="49.698029" lon="15.747476">
				<ele>540.000000</ele>
			</trkpt>
			<trkpt lat="49.698075" lon="15.747377">
				<ele>540.000000</ele>
			</trkpt>
			<trkpt lat="49.698110" lon="15.747287">
				<ele>540.000000</ele>
			</trkpt>
			<trkpt lat="49.698156" lon="15.747063">
				<ele>540.000000</ele>
			</trkpt>
			<trkpt lat="49.698185" lon="15.746856">
				<ele>540.000000</ele>
			</trkpt>
			<trkpt lat="49.698197" lon="15.746631">
				<ele>540.000000</ele>
			</trkpt>
			<trkpt lat="49.698203" lon="15.746273">
				<ele>540.000000</ele>
			</trkpt>
			<trkpt lat="49.698220" lon="15.745814">
				<ele>540.000000</ele>
			</trkpt>
			<trkpt lat="49.698226" lon="15.745634">
				<ele>540.000000</ele>
			</trkpt>
			<trkpt lat="49.698255" lon="15.745472">
				<ele>540.000000</ele>
			</trkpt>
			<trkpt lat="49.698290" lon="15.745321">
				<ele>540.000000</ele>
			</trkpt>
			<trkpt lat="49.698336" lon="15.745195">
				<ele>540.000000</ele>
			</trkpt>
			<trkpt lat="49.698395" lon="15.745059">
				<ele>540.000000</ele>
			</trkpt>
			<trkpt lat="49.698458" lon="15.744933">
				<ele>540.000000</ele>
			</trkpt>
			<trkpt lat="49.698784" lon="15.744386">
				<ele>540.000000</ele>
			</trkpt>
			<trkpt lat="49.698912" lon="15.744009">
				<ele>540.000000</ele>
			</trkpt>
			<trkpt lat="49.698993" lon="15.743774">
				<ele>540.000000</ele>
			</trkpt>
			<trkpt lat="49.699063" lon="15.743497">
				<ele>540.000000</ele>
			</trkpt>
			<trkpt lat="49.699115" lon="15.743218">
				<ele>540.000000</ele>
			</trkpt>
			<trkpt lat="49.699156" lon="15.742705">
				<ele>540.000000</ele>
			</trkpt>
			<trkpt lat="49.699173" lon="15.742526">
				<ele>540.000000</ele>
			</trkpt>
			<trkpt lat="49.699191" lon="15.742436">
				<ele>540.000000</ele>
			</trkpt>
			<trkpt lat="49.699231" lon="15.742338">
				<ele>540.000000</ele>
			</trkpt>
			<trkpt lat="49.699266" lon="15.742239">
				<ele>540.000000</ele>
			</trkpt>
			<trkpt lat="49.699313" lon="15.742140">
				<ele>540.000000</ele>
			</trkpt>
			<trkpt lat="49.699423" lon="15.741933">
				<ele>540.000000</ele>
			</trkpt>
			<trkpt lat="49.699492" lon="15.741772">
				<ele>540.000000</ele>
			</trkpt>
			<trkpt lat="49.699557" lon="15.741583">
				<ele>540.000000</ele>
			</trkpt>
			<trkpt lat="49.699614" lon="15.741331">
				<ele>540.000000</ele>
			</trkpt>
			<trkpt lat="49.699696" lon="15.740954">
				<ele>540.000000</ele>
			</trkpt>
			<trkpt lat="49.699754" lon="15.740721">
				<ele>540.000000</ele>
			</trkpt>
			<trkpt lat="49.699818" lon="15.740514">
				<ele>540.000000</ele>
			</trkpt>
			<trkpt lat="49.699899" lon="15.740281">
				<ele>540.000000</ele>
			</trkpt>
			<trkpt lat="49.699946" lon="15.740145">
				<ele>540.000000</ele>
			</trkpt>
			<trkpt lat="49.699975" lon="15.740002">
				<ele>540.000000</ele>
			</trkpt>
			<trkpt lat="49.699993" lon="15.739849">
				<ele>540.000000</ele>
			</trkpt>
			<trkpt lat="49.700010" lon="15.739606">
				<ele>540.000000</ele>
			</trkpt>
			<trkpt lat="49.700039" lon="15.739176">
				<ele>540.000000</ele>
			</trkpt>
			<trkpt lat="49.700097" lon="15.738744">
				<ele>540.000000</ele>
			</trkpt>
			<trkpt lat="49.700091" lon="15.738591">
				<ele>540.000000</ele>
			</trkpt>
			<trkpt lat="49.700062" lon="15.738484">
				<ele>540.000000</ele>
			</trkpt>
			<trkpt lat="49.700004" lon="15.738295">
				<ele>540.000000</ele>
			</trkpt>
			<trkpt lat="49.699975" lon="15.738187">
				<ele>540.000000</ele>
			</trkpt>
			<trkpt lat="49.699969" lon="15.738080">
				<ele>540.000000</ele>
			</trkpt>
			<trkpt lat="49.699975" lon="15.737963">
				<ele>540.000000</ele>
			</trkpt>
			<trkpt lat="49.700033" lon="15.737604">
				<ele>540.000000</ele>
			</trkpt>
			<trkpt lat="49.700050" lon="15.737424">
				<ele>540.000000</ele>
			</trkpt>
			<trkpt lat="49.700056" lon="15.736570">
				<ele>539.000000</ele>
			</trkpt>
			<trkpt lat="49.700080" lon="15.736327">
				<ele>539.000000</ele>
			</trkpt>
			<trkpt lat="49.700109" lon="15.736086">
				<ele>539.000000</ele>
			</trkpt>
			<trkpt lat="49.700115" lon="15.735996">
				<ele>539.000000</ele>
			</trkpt>
			<trkpt lat="49.700150" lon="15.735933">
				<ele>539.000000</ele>
			</trkpt>
			<trkpt lat="49.700207" lon="15.735879">
				<ele>539.000000</ele>
			</trkpt>
			<trkpt lat="49.700312" lon="15.735824">
				<ele>539.000000</ele>
			</trkpt>
			<trkpt lat="49.700358" lon="15.735780">
				<ele>539.000000</ele>
			</trkpt>
			<trkpt lat="49.700393" lon="15.735734">
				<ele>539.000000</ele>
			</trkpt>
			<trkpt lat="49.700422" lon="15.735673">
				<ele>539.000000</ele>
			</trkpt>
			<trkpt lat="49.700451" lon="15.735564">
				<ele>538.000000</ele>
			</trkpt>
			<trkpt lat="49.700486" lon="15.735465">
				<ele>538.000000</ele>
			</trkpt>
			<trkpt lat="49.700527" lon="15.735367">
				<ele>538.000000</ele>
			</trkpt>
			<trkpt lat="49.700736" lon="15.734954">
				<ele>538.000000</ele>
			</trkpt>
			<trkpt lat="49.700800" lon="15.734818">
				<ele>538.000000</ele>
			</trkpt>
			<trkpt lat="49.700841" lon="15.734666">
				<ele>538.000000</ele>
			</trkpt>
			<trkpt lat="49.700870" lon="15.734568">
				<ele>537.000000</ele>
			</trkpt>
			<trkpt lat="49.700887" lon="15.734459">
				<ele>537.000000</ele>
			</trkpt>
			<trkpt lat="49.700899" lon="15.734361">
				<ele>537.000000</ele>
			</trkpt>
			<trkpt lat="49.700911" lon="15.734252">
				<ele>537.000000</ele>
			</trkpt>
			<trkpt lat="49.700881" lon="15.734029">
				<ele>537.000000</ele>
			</trkpt>
			<trkpt lat="49.700823" lon="15.733677">
				<ele>537.000000</ele>
			</trkpt>
			<trkpt lat="49.700887" lon="15.733723">
				<ele>537.000000</ele>
			</trkpt>
			<trkpt lat="49.700887" lon="15.733723">
				<ele>537.000000</ele>
			</trkpt>
			<trkpt lat="49.700945" lon="15.733767">
				<ele>537.000000</ele>
			</trkpt>
			<trkpt lat="49.701166" lon="15.733849">
				<ele>537.000000</ele>
			</trkpt>
			<trkpt lat="49.701334" lon="15.733912">
				<ele>537.000000</ele>
			</trkpt>
			<trkpt lat="49.701520" lon="15.733912">
				<ele>537.000000</ele>
			</trkpt>
			<trkpt lat="49.701660" lon="15.733912">
				<ele>538.000000</ele>
			</trkpt>
			<trkpt lat="49.701776" lon="15.733947">
				<ele>538.000000</ele>
			</trkpt>
			<trkpt lat="49.701863" lon="15.733975">
				<ele>538.000000</ele>
			</trkpt>
			<trkpt lat="49.701927" lon="15.734002">
				<ele>538.000000</ele>
			</trkpt>
			<trkpt lat="49.702073" lon="15.734073">
				<ele>537.000000</ele>
			</trkpt>
			<trkpt lat="49.702211" lon="15.734172">
				<ele>536.000000</ele>
			</trkpt>
			<trkpt lat="49.702537" lon="15.734415">
				<ele>534.000000</ele>
			</trkpt>
			<trkpt lat="49.702653" lon="15.734541">
				<ele>533.000000</ele>
			</trkpt>
			<trkpt lat="49.702804" lon="15.734692">
				<ele>531.000000</ele>
			</trkpt>
			<trkpt lat="49.702839" lon="15.734719">
				<ele>531.000000</ele>
			</trkpt>
			<trkpt lat="49.702869" lon="15.734738">
				<ele>531.000000</ele>
			</trkpt>
			<trkpt lat="49.702938" lon="15.734738">
				<ele>530.000000</ele>
			</trkpt>
			<trkpt lat="49.702985" lon="15.734692">
				<ele>530.000000</ele>
			</trkpt>
			<trkpt lat="49.703037" lon="15.734639">
				<ele>530.000000</ele>
			</trkpt>
			<trkpt lat="49.703182" lon="15.734369">
				<ele>530.000000</ele>
			</trkpt>
			<trkpt lat="49.703275" lon="15.734199">
				<ele>530.000000</ele>
			</trkpt>
			<trkpt lat="49.703386" lon="15.734055">
				<ele>530.000000</ele>
			</trkpt>
			<trkpt lat="49.703490" lon="15.733912">
				<ele>530.000000</ele>
			</trkpt>
			<trkpt lat="49.703583" lon="15.733822">
				<ele>530.000000</ele>
			</trkpt>
			<trkpt lat="49.703682" lon="15.733723">
				<ele>530.000000</ele>
			</trkpt>
			<trkpt lat="49.703920" lon="15.733489">
				<ele>530.000000</ele>
			</trkpt>
			<trkpt lat="49.704245" lon="15.733247">
				<ele>530.000000</ele>
			</trkpt>
			<trkpt lat="49.704414" lon="15.733121">
				<ele>530.000000</ele>
			</trkpt>
			<trkpt lat="49.704524" lon="15.733031">
				<ele>530.000000</ele>
			</trkpt>
			<trkpt lat="49.704623" lon="15.732905">
				<ele>530.000000</ele>
			</trkpt>
			<trkpt lat="49.704669" lon="15.732851">
				<ele>531.000000</ele>
			</trkpt>
			<trkpt lat="49.704704" lon="15.732807">
				<ele>531.000000</ele>
			</trkpt>
			<trkpt lat="49.704821" lon="15.732744">
				<ele>531.000000</ele>
			</trkpt>
			<trkpt lat="49.705326" lon="15.732484">
				<ele>534.000000</ele>
			</trkpt>
			<trkpt lat="49.705372" lon="15.732447">
				<ele>534.000000</ele>
			</trkpt>
			<trkpt lat="49.705407" lon="15.732394">
				<ele>534.000000</ele>
			</trkpt>
			<trkpt lat="49.705506" lon="15.732492">
				<ele>535.000000</ele>
			</trkpt>
			<trkpt lat="49.705599" lon="15.732573">
				<ele>535.000000</ele>
			</trkpt>
			<trkpt lat="49.705750" lon="15.732654">
				<ele>535.000000</ele>
			</trkpt>
			<trkpt lat="49.705849" lon="15.732753">
				<ele>535.000000</ele>
			</trkpt>
			<trkpt lat="49.705883" lon="15.732618">
				<ele>535.000000</ele>
			</trkpt>
			<trkpt lat="49.705901" lon="15.732465">
				<ele>535.000000</ele>
			</trkpt>
			<trkpt lat="49.705895" lon="15.732304">
				<ele>535.000000</ele>
			</trkpt>
			<trkpt lat="49.705861" lon="15.732088">
				<ele>535.000000</ele>
			</trkpt>
			<trkpt lat="49.705843" lon="15.731952">
				<ele>535.000000</ele>
			</trkpt>
			<trkpt lat="49.705837" lon="15.731828">
				<ele>535.000000</ele>
			</trkpt>
			<trkpt lat="49.705855" lon="15.731719">
				<ele>535.000000</ele>
			</trkpt>
			<trkpt lat="49.705889" lon="15.731602">
				<ele>535.000000</ele>
			</trkpt>
			<trkpt lat="49.705947" lon="15.731450">
				<ele>535.000000</ele>
			</trkpt>
			<trkpt lat="49.705982" lon="15.731306">
				<ele>535.000000</ele>
			</trkpt>
			<trkpt lat="49.706011" lon="15.731153">
				<ele>535.000000</ele>
			</trkpt>
			<trkpt lat="49.706023" lon="15.730983">
				<ele>535.000000</ele>
			</trkpt>
			<trkpt lat="49.706005" lon="15.730371">
				<ele>535.000000</ele>
			</trkpt>
			<trkpt lat="49.706005" lon="15.730111">
				<ele>535.000000</ele>
			</trkpt>
			<trkpt lat="49.706034" lon="15.729887">
				<ele>535.000000</ele>
			</trkpt>
			<trkpt lat="49.706174" lon="15.729195">
				<ele>535.000000</ele>
			</trkpt>
			<trkpt lat="49.706215" lon="15.729069">
				<ele>535.000000</ele>
			</trkpt>
			<trkpt lat="49.706256" lon="15.728962">
				<ele>535.000000</ele>
			</trkpt>
			<trkpt lat="49.706319" lon="15.728881">
				<ele>535.000000</ele>
			</trkpt>
			<trkpt lat="49.706400" lon="15.728782">
				<ele>535.000000</ele>
			</trkpt>
			<trkpt lat="49.706557" lon="15.728665">
				<ele>535.000000</ele>
			</trkpt>
			<trkpt lat="49.706807" lon="15.728459">
				<ele>535.000000</ele>
			</trkpt>
			<trkpt lat="49.706865" lon="15.728405">
				<ele>535.000000</ele>
			</trkpt>
			<trkpt lat="49.706917" lon="15.728350">
				<ele>535.000000</ele>
			</trkpt>
			<trkpt lat="49.706964" lon="15.728270">
				<ele>535.000000</ele>
			</trkpt>
			<trkpt lat="49.707028" lon="15.728117">
				<ele>535.000000</ele>
			</trkpt>
			<trkpt lat="49.707202" lon="15.727767">
				<ele>535.000000</ele>
			</trkpt>
			<trkpt lat="49.707301" lon="15.727560">
				<ele>535.000000</ele>
			</trkpt>
			<trkpt lat="49.707412" lon="15.727398">
				<ele>535.000000</ele>
			</trkpt>
			<trkpt lat="49.707539" lon="15.727218">
				<ele>535.000000</ele>
			</trkpt>
			<trkpt lat="49.707673" lon="15.727067">
				<ele>535.000000</ele>
			</trkpt>
			<trkpt lat="49.708033" lon="15.726671">
				<ele>535.000000</ele>
			</trkpt>
			<trkpt lat="49.708225" lon="15.726428">
				<ele>534.000000</ele>
			</trkpt>
			<trkpt lat="49.708318" lon="15.726509">
				<ele>534.000000</ele>
			</trkpt>
			<trkpt lat="49.708376" lon="15.726608">
				<ele>534.000000</ele>
			</trkpt>
			<trkpt lat="49.708730" lon="15.727407">
				<ele>532.000000</ele>
			</trkpt>
			<trkpt lat="49.708806" lon="15.727534">
				<ele>531.000000</ele>
			</trkpt>
			<trkpt lat="49.708875" lon="15.727641">
				<ele>531.000000</ele>
			</trkpt>
			<trkpt lat="49.709044" lon="15.727866">
				<ele>530.000000</ele>
			</trkpt>
			<trkpt lat="49.709154" lon="15.727991">
				<ele>530.000000</ele>
			</trkpt>
			<trkpt lat="49.709270" lon="15.728090">
				<ele>529.000000</ele>
			</trkpt>
			<trkpt lat="49.709404" lon="15.728180">
				<ele>529.000000</ele>
			</trkpt>
			<trkpt lat="49.709508" lon="15.728207">
				<ele>529.000000</ele>
			</trkpt>
			<trkpt lat="49.709607" lon="15.728207">
				<ele>529.000000</ele>
			</trkpt>
			<trkpt lat="49.709700" lon="15.728180">
				<ele>528.000000</ele>
			</trkpt>
			<trkpt lat="49.709962" lon="15.728073">
				<ele>528.000000</ele>
			</trkpt>
			<trkpt lat="49.710246" lon="15.727964">
				<ele>527.000000</ele>
			</trkpt>
			<trkpt lat="49.710368" lon="15.727901">
				<ele>527.000000</ele>
			</trkpt>
			<trkpt lat="49.710490" lon="15.727821">
				<ele>527.000000</ele>
			</trkpt>
			<trkpt lat="49.710763" lon="15.727633">
				<ele>526.000000</ele>
			</trkpt>
			<trkpt lat="49.711002" lon="15.727453">
				<ele>525.000000</ele>
			</trkpt>
			<trkpt lat="49.711832" lon="15.726715">
				<ele>522.000000</ele>
			</trkpt>
			<trkpt lat="49.712959" lon="15.725790">
				<ele>519.000000</ele>
			</trkpt>
			<trkpt lat="49.713331" lon="15.725459">
				<ele>519.000000</ele>
			</trkpt>
			<trkpt lat="49.713610" lon="15.725234">
				<ele>518.000000</ele>
			</trkpt>
			<trkpt lat="49.713795" lon="15.725054">
				<ele>518.000000</ele>
			</trkpt>
			<trkpt lat="49.714011" lon="15.724820">
				<ele>518.000000</ele>
			</trkpt>
			<trkpt lat="49.714231" lon="15.724505">
				<ele>517.000000</ele>
			</trkpt>
			<trkpt lat="49.714330" lon="15.724371">
				<ele>517.000000</ele>
			</trkpt>
			<trkpt lat="49.714411" lon="15.724272">
				<ele>517.000000</ele>
			</trkpt>
			<trkpt lat="49.714498" lon="15.724201">
				<ele>517.000000</ele>
			</trkpt>
			<trkpt lat="49.714620" lon="15.724119">
				<ele>517.000000</ele>
			</trkpt>
			<trkpt lat="49.715102" lon="15.723796">
				<ele>516.000000</ele>
			</trkpt>
			<trkpt lat="49.716061" lon="15.723186">
				<ele>515.000000</ele>
			</trkpt>
			<trkpt lat="49.716694" lon="15.722736">
				<ele>513.000000</ele>
			</trkpt>
			<trkpt lat="49.717118" lon="15.722440">
				<ele>510.000000</ele>
			</trkpt>
			<trkpt lat="49.717705" lon="15.722035">
				<ele>509.000000</ele>
			</trkpt>
			<trkpt lat="49.718419" lon="15.721559">
				<ele>508.000000</ele>
			</trkpt>
			<trkpt lat="49.718779" lon="15.721299">
				<ele>507.000000</ele>
			</trkpt>
			<trkpt lat="49.720614" lon="15.720104">
				<ele>501.000000</ele>
			</trkpt>
			<trkpt lat="49.721033" lon="15.719834">
				<ele>500.000000</ele>
			</trkpt>
			<trkpt lat="49.722647" lon="15.718792">
				<ele>497.000000</ele>
			</trkpt>
			<trkpt lat="49.723071" lon="15.718532">
				<ele>495.000000</ele>
			</trkpt>
			<trkpt lat="49.723303" lon="15.718398">
				<ele>492.000000</ele>
			</trkpt>
			<trkpt lat="49.723628" lon="15.718218">
				<ele>489.000000</ele>
			</trkpt>
			<trkpt lat="49.724947" lon="15.717507">
				<ele>477.000000</ele>
			</trkpt>
			<trkpt lat="49.725608" lon="15.717157">
				<ele>471.000000</ele>
			</trkpt>
			<trkpt lat="49.725870" lon="15.717005">
				<ele>469.000000</ele>
			</trkpt>
			<trkpt lat="49.725951" lon="15.716960">
				<ele>468.000000</ele>
			</trkpt>
			<trkpt lat="49.726033" lon="15.716897">
				<ele>468.000000</ele>
			</trkpt>
			<trkpt lat="49.726102" lon="15.716817">
				<ele>467.000000</ele>
			</trkpt>
			<trkpt lat="49.726166" lon="15.716735">
				<ele>466.000000</ele>
			</trkpt>
			<trkpt lat="49.726230" lon="15.716637">
				<ele>465.000000</ele>
			</trkpt>
			<trkpt lat="49.726288" lon="15.716494">
				<ele>464.000000</ele>
			</trkpt>
			<trkpt lat="49.726404" lon="15.716169">
				<ele>462.000000</ele>
			</trkpt>
			<trkpt lat="49.726433" lon="15.716125">
				<ele>461.000000</ele>
			</trkpt>
			<trkpt lat="49.726451" lon="15.716079">
				<ele>461.000000</ele>
			</trkpt>
			<trkpt lat="49.726532" lon="15.716026">
				<ele>460.000000</ele>
			</trkpt>
			<trkpt lat="49.726526" lon="15.715918">
				<ele>460.000000</ele>
			</trkpt>
			<trkpt lat="49.726544" lon="15.715783">
				<ele>460.000000</ele>
			</trkpt>
			<trkpt lat="49.726579" lon="15.715639">
				<ele>460.000000</ele>
			</trkpt>
			<trkpt lat="49.726642" lon="15.715478">
				<ele>460.000000</ele>
			</trkpt>
			<trkpt lat="49.726846" lon="15.715037">
				<ele>460.000000</ele>
			</trkpt>
			<trkpt lat="49.726869" lon="15.714983">
				<ele>460.000000</ele>
			</trkpt>
			<trkpt lat="49.726898" lon="15.714894">
				<ele>460.000000</ele>
			</trkpt>
			<trkpt lat="49.726927" lon="15.714786">
				<ele>460.000000</ele>
			</trkpt>
			<trkpt lat="49.726939" lon="15.714679">
				<ele>460.000000</ele>
			</trkpt>
			<trkpt lat="49.726944" lon="15.714553">
				<ele>460.000000</ele>
			</trkpt>
			<trkpt lat="49.727101" lon="15.714597">
				<ele>459.000000</ele>
			</trkpt>
			<trkpt lat="49.727188" lon="15.714624">
				<ele>458.000000</ele>
			</trkpt>
			<trkpt lat="49.727252" lon="15.714454">
				<ele>458.000000</ele>
			</trkpt>
			<trkpt lat="49.727397" lon="15.714157">
				<ele>459.000000</ele>
			</trkpt>
			<trkpt lat="49.727432" lon="15.714058">
				<ele>459.000000</ele>
			</trkpt>
			<trkpt lat="49.727473" lon="15.713951">
				<ele>459.000000</ele>
			</trkpt>
			<trkpt lat="49.727490" lon="15.713834">
				<ele>459.000000</ele>
			</trkpt>
			<trkpt lat="49.727507" lon="15.713654">
				<ele>459.000000</ele>
			</trkpt>
			<trkpt lat="49.727531" lon="15.713439">
				<ele>459.000000</ele>
			</trkpt>
			<trkpt lat="49.727548" lon="15.713196">
				<ele>459.000000</ele>
			</trkpt>
			<trkpt lat="49.727560" lon="15.713062">
				<ele>460.000000</ele>
			</trkpt>
			<trkpt lat="49.727548" lon="15.712926">
				<ele>460.000000</ele>
			</trkpt>
			<trkpt lat="49.727542" lon="15.712882">
				<ele>460.000000</ele>
			</trkpt>
			<trkpt lat="49.727542" lon="15.712882">
				<ele>460.000000</ele>
			</trkpt>
			<trkpt lat="49.727548" lon="15.712926">
				<ele>460.000000</ele>
			</trkpt>
			<trkpt lat="49.727560" lon="15.713062">
				<ele>460.000000</ele>
			</trkpt>
			<trkpt lat="49.727548" lon="15.713196">
				<ele>459.000000</ele>
			</trkpt>
			<trkpt lat="49.727531" lon="15.713439">
				<ele>459.000000</ele>
			</trkpt>
			<trkpt lat="49.727507" lon="15.713654">
				<ele>459.000000</ele>
			</trkpt>
			<trkpt lat="49.727490" lon="15.713834">
				<ele>459.000000</ele>
			</trkpt>
			<trkpt lat="49.727473" lon="15.713951">
				<ele>459.000000</ele>
			</trkpt>
			<trkpt lat="49.727432" lon="15.714058">
				<ele>459.000000</ele>
			</trkpt>
			<trkpt lat="49.727397" lon="15.714157">
				<ele>459.000000</ele>
			</trkpt>
			<trkpt lat="49.727252" lon="15.714454">
				<ele>458.000000</ele>
			</trkpt>
			<trkpt lat="49.727188" lon="15.714624">
				<ele>458.000000</ele>
			</trkpt>
			<trkpt lat="49.727223" lon="15.714670">
				<ele>458.000000</ele>
			</trkpt>
			<trkpt lat="49.727304" lon="15.714750">
				<ele>457.000000</ele>
			</trkpt>
			<trkpt lat="49.727507" lon="15.714947">
				<ele>454.000000</ele>
			</trkpt>
			<trkpt lat="49.727763" lon="15.715190">
				<ele>452.000000</ele>
			</trkpt>
			<trkpt lat="49.727839" lon="15.715253">
				<ele>451.000000</ele>
			</trkpt>
			<trkpt lat="49.727931" lon="15.715370">
				<ele>450.000000</ele>
			</trkpt>
			<trkpt lat="49.727972" lon="15.715423">
				<ele>450.000000</ele>
			</trkpt>
			<trkpt lat="49.728030" lon="15.715469">
				<ele>449.000000</ele>
			</trkpt>
			<trkpt lat="49.728083" lon="15.715496">
				<ele>449.000000</ele>
			</trkpt>
			<trkpt lat="49.728152" lon="15.715513">
				<ele>449.000000</ele>
			</trkpt>
			<trkpt lat="49.728646" lon="15.715576">
				<ele>446.000000</ele>
			</trkpt>
			<trkpt lat="49.728983" lon="15.715595">
				<ele>445.000000</ele>
			</trkpt>
			<trkpt lat="49.729162" lon="15.715568">
				<ele>444.000000</ele>
			</trkpt>
			<trkpt lat="49.729243" lon="15.715532">
				<ele>444.000000</ele>
			</trkpt>
			<trkpt lat="49.729325" lon="15.715486">
				<ele>443.000000</ele>
			</trkpt>
			<trkpt lat="49.729511" lon="15.715379">
				<ele>443.000000</ele>
			</trkpt>
			<trkpt lat="49.729894" lon="15.715110">
				<ele>441.000000</ele>
			</trkpt>
			<trkpt lat="49.729998" lon="15.715037">
				<ele>441.000000</ele>
			</trkpt>
			<trkpt lat="49.730092" lon="15.715010">
				<ele>440.000000</ele>
			</trkpt>
			<trkpt lat="49.730190" lon="15.714983">
				<ele>440.000000</ele>
			</trkpt>
			<trkpt lat="49.730318" lon="15.714993">
				<ele>440.000000</ele>
			</trkpt>
			<trkpt lat="49.730440" lon="15.714993">
				<ele>440.000000</ele>
			</trkpt>
			<trkpt lat="49.730550" lon="15.715020">
				<ele>439.000000</ele>
			</trkpt>
			<trkpt lat="49.730835" lon="15.715119">
				<ele>439.000000</ele>
			</trkpt>
			<trkpt lat="49.731044" lon="15.715209">
				<ele>438.000000</ele>
			</trkpt>
			<trkpt lat="49.731224" lon="15.715236">
				<ele>438.000000</ele>
			</trkpt>
			<trkpt lat="49.731346" lon="15.715253">
				<ele>438.000000</ele>
			</trkpt>
			<trkpt lat="49.731474" lon="15.715280">
				<ele>438.000000</ele>
			</trkpt>
			<trkpt lat="49.731572" lon="15.715325">
				<ele>437.000000</ele>
			</trkpt>
			<trkpt lat="49.732136" lon="15.715541">
				<ele>436.000000</ele>
			</trkpt>
			<trkpt lat="49.732240" lon="15.715568">
				<ele>436.000000</ele>
			</trkpt>
			<trkpt lat="49.732327" lon="15.715586">
				<ele>436.000000</ele>
			</trkpt>
			<trkpt lat="49.732623" lon="15.715576">
				<ele>435.000000</ele>
			</trkpt>
			<trkpt lat="49.732716" lon="15.715595">
				<ele>435.000000</ele>
			</trkpt>
			<trkpt lat="49.732791" lon="15.715622">
				<ele>435.000000</ele>
			</trkpt>
			<trkpt lat="49.732867" lon="15.715666">
				<ele>435.000000</ele>
			</trkpt>
			<trkpt lat="49.732937" lon="15.715748">
				<ele>435.000000</ele>
			</trkpt>
			<trkpt lat="49.733088" lon="15.715918">
				<ele>435.000000</ele>
			</trkpt>
			<trkpt lat="49.733169" lon="15.715999">
				<ele>435.000000</ele>
			</trkpt>
			<trkpt lat="49.733262" lon="15.716062">
				<ele>434.000000</ele>
			</trkpt>
			<trkpt lat="49.733337" lon="15.716098">
				<ele>434.000000</ele>
			</trkpt>
			<trkpt lat="49.733401" lon="15.716134">
				<ele>434.000000</ele>
			</trkpt>
			<trkpt lat="49.733477" lon="15.716134">
				<ele>434.000000</ele>
			</trkpt>
			<trkpt lat="49.733546" lon="15.716134">
				<ele>434.000000</ele>
			</trkpt>
			<trkpt lat="49.733656" lon="15.716089">
				<ele>433.000000</ele>
			</trkpt>
			<trkpt lat="49.734016" lon="15.715962">
				<ele>432.000000</ele>
			</trkpt>
			<trkpt lat="49.734330" lon="15.715855">
				<ele>431.000000</ele>
			</trkpt>
			<trkpt lat="49.734586" lon="15.715783">
				<ele>431.000000</ele>
			</trkpt>
			<trkpt lat="49.734853" lon="15.715765">
				<ele>430.000000</ele>
			</trkpt>
			<trkpt lat="49.735097" lon="15.715756">
				<ele>428.000000</ele>
			</trkpt>
			<trkpt lat="49.735248" lon="15.715729">
				<ele>428.000000</ele>
			</trkpt>
			<trkpt lat="49.735392" lon="15.715676">
				<ele>427.000000</ele>
			</trkpt>
			<trkpt lat="49.735555" lon="15.715595">
				<ele>426.000000</ele>
			</trkpt>
			<trkpt lat="49.736124" lon="15.715272">
				<ele>424.000000</ele>
			</trkpt>
			<trkpt lat="49.736513" lon="15.715056">
				<ele>423.000000</ele>
			</trkpt>
			<trkpt lat="49.736565" lon="15.715010">
				<ele>423.000000</ele>
			</trkpt>
			<trkpt lat="49.736606" lon="15.714939">
				<ele>423.000000</ele>
			</trkpt>
			<trkpt lat="49.736630" lon="15.714857">
				<ele>423.000000</ele>
			</trkpt>
			<trkpt lat="49.736670" lon="15.714706">
				<ele>422.000000</ele>
			</trkpt>
			<trkpt lat="49.736786" lon="15.714220">
				<ele>422.000000</ele>
			</trkpt>
			<trkpt lat="49.737047" lon="15.713322">
				<ele>420.000000</ele>
			</trkpt>
			<trkpt lat="49.737146" lon="15.712936">
				<ele>420.000000</ele>
			</trkpt>
			<trkpt lat="49.737204" lon="15.712675">
				<ele>420.000000</ele>
			</trkpt>
			<trkpt lat="49.737239" lon="15.712450">
				<ele>420.000000</ele>
			</trkpt>
			<trkpt lat="49.737268" lon="15.712217">
				<ele>420.000000</ele>
			</trkpt>
			<trkpt lat="49.737285" lon="15.711957">
				<ele>420.000000</ele>
			</trkpt>
			<trkpt lat="49.737309" lon="15.711831">
				<ele>420.000000</ele>
			</trkpt>
			<trkpt lat="49.737326" lon="15.711704">
				<ele>420.000000</ele>
			</trkpt>
			<trkpt lat="49.737361" lon="15.711597">
				<ele>420.000000</ele>
			</trkpt>
			<trkpt lat="49.737396" lon="15.711498">
				<ele>420.000000</ele>
			</trkpt>
			<trkpt lat="49.737442" lon="15.711427">
				<ele>420.000000</ele>
			</trkpt>
			<trkpt lat="49.737489" lon="15.711373">
				<ele>420.000000</ele>
			</trkpt>
			<trkpt lat="49.737552" lon="15.711318">
				<ele>420.000000</ele>
			</trkpt>
			<trkpt lat="49.737622" lon="15.711291">
				<ele>420.000000</ele>
			</trkpt>
			<trkpt lat="49.737895" lon="15.711238">
				<ele>420.000000</ele>
			</trkpt>
			<trkpt lat="49.738046" lon="15.711194">
				<ele>420.000000</ele>
			</trkpt>
			<trkpt lat="49.738162" lon="15.711139">
				<ele>421.000000</ele>
			</trkpt>
			<trkpt lat="49.738244" lon="15.711067">
				<ele>421.000000</ele>
			</trkpt>
			<trkpt lat="49.738330" lon="15.710959">
				<ele>422.000000</ele>
			</trkpt>
			<trkpt lat="49.738412" lon="15.710807">
				<ele>423.000000</ele>
			</trkpt>
			<trkpt lat="49.738592" lon="15.710393">
				<ele>425.000000</ele>
			</trkpt>
			<trkpt lat="49.738690" lon="15.710213">
				<ele>425.000000</ele>
			</trkpt>
			<trkpt lat="49.738771" lon="15.710062">
				<ele>425.000000</ele>
			</trkpt>
			<trkpt lat="49.738963" lon="15.709800">
				<ele>425.000000</ele>
			</trkpt>
			<trkpt lat="49.739190" lon="15.709523">
				<ele>425.000000</ele>
			</trkpt>
			<trkpt lat="49.739364" lon="15.709351">
				<ele>425.000000</ele>
			</trkpt>
			<trkpt lat="49.739788" lon="15.708920">
				<ele>425.000000</ele>
			</trkpt>
			<trkpt lat="49.740316" lon="15.708372">
				<ele>425.000000</ele>
			</trkpt>
			<trkpt lat="49.740583" lon="15.708102">
				<ele>425.000000</ele>
			</trkpt>
			<trkpt lat="49.740769" lon="15.707915">
				<ele>425.000000</ele>
			</trkpt>
			<trkpt lat="49.740856" lon="15.707833">
				<ele>425.000000</ele>
			</trkpt>
			<trkpt lat="49.740949" lon="15.707762">
				<ele>425.000000</ele>
			</trkpt>
			<trkpt lat="49.741036" lon="15.707725">
				<ele>425.000000</ele>
			</trkpt>
			<trkpt lat="49.741181" lon="15.707681">
				<ele>425.000000</ele>
			</trkpt>
			<trkpt lat="49.741535" lon="15.707591">
				<ele>425.000000</ele>
			</trkpt>
			<trkpt lat="49.741855" lon="15.707528">
				<ele>425.000000</ele>
			</trkpt>
			<trkpt lat="49.741953" lon="15.707501">
				<ele>425.000000</ele>
			</trkpt>
			<trkpt lat="49.742075" lon="15.707501">
				<ele>424.000000</ele>
			</trkpt>
			<trkpt lat="49.742197" lon="15.707519">
				<ele>423.000000</ele>
			</trkpt>
			<trkpt lat="49.742296" lon="15.707402">
				<ele>423.000000</ele>
			</trkpt>
			<trkpt lat="49.742423" lon="15.707312">
				<ele>422.000000</ele>
			</trkpt>
			<trkpt lat="49.742580" lon="15.707186">
				<ele>422.000000</ele>
			</trkpt>
			<trkpt lat="49.742713" lon="15.707070">
				<ele>422.000000</ele>
			</trkpt>
			<trkpt lat="49.742830" lon="15.706944">
				<ele>421.000000</ele>
			</trkpt>
			<trkpt lat="49.742940" lon="15.706836">
				<ele>421.000000</ele>
			</trkpt>
			<trkpt lat="49.743015" lon="15.706720">
				<ele>421.000000</ele>
			</trkpt>
			<trkpt lat="49.743085" lon="15.706603">
				<ele>420.000000</ele>
			</trkpt>
			<trkpt lat="49.743149" lon="15.706477">
				<ele>420.000000</ele>
			</trkpt>
			<trkpt lat="49.743207" lon="15.706333">
				<ele>420.000000</ele>
			</trkpt>
			<trkpt lat="49.743271" lon="15.706171">
				<ele>420.000000</ele>
			</trkpt>
			<trkpt lat="49.743312" lon="15.706018">
				<ele>420.000000</ele>
			</trkpt>
			<trkpt lat="49.743358" lon="15.705812">
				<ele>420.000000</ele>
			</trkpt>
			<trkpt lat="49.743399" lon="15.705588">
				<ele>420.000000</ele>
			</trkpt>
			<trkpt lat="49.743428" lon="15.705479">
				<ele>420.000000</ele>
			</trkpt>
			<trkpt lat="49.743450" lon="15.705372">
				<ele>420.000000</ele>
			</trkpt>
			<trkpt lat="49.743509" lon="15.705219">
				<ele>420.000000</ele>
			</trkpt>
			<trkpt lat="49.743555" lon="15.705138">
				<ele>420.000000</ele>
			</trkpt>
			<trkpt lat="49.743607" lon="15.705039">
				<ele>420.000000</ele>
			</trkpt>
			<trkpt lat="49.743671" lon="15.704941">
				<ele>420.000000</ele>
			</trkpt>
			<trkpt lat="49.743817" lon="15.704752">
				<ele>420.000000</ele>
			</trkpt>
			<trkpt lat="49.743961" lon="15.704572">
				<ele>420.000000</ele>
			</trkpt>
			<trkpt lat="49.744124" lon="15.704410">
				<ele>420.000000</ele>
			</trkpt>
			<trkpt lat="49.744414" lon="15.704096">
				<ele>420.000000</ele>
			</trkpt>
			<trkpt lat="49.744496" lon="15.703980">
				<ele>420.000000</ele>
			</trkpt>
			<trkpt lat="49.744571" lon="15.703854">
				<ele>420.000000</ele>
			</trkpt>
			<trkpt lat="49.744693" lon="15.703970">
				<ele>422.000000</ele>
			</trkpt>
			<trkpt lat="49.744774" lon="15.704043">
				<ele>423.000000</ele>
			</trkpt>
			<trkpt lat="49.744844" lon="15.704141">
				<ele>425.000000</ele>
			</trkpt>
			<trkpt lat="49.744920" lon="15.704249">
				<ele>425.000000</ele>
			</trkpt>
			<trkpt lat="49.745001" lon="15.704159">
				<ele>425.000000</ele>
			</trkpt>
			<trkpt lat="49.745001" lon="15.704159">
				<ele>425.000000</ele>
			</trkpt>
			<trkpt lat="49.744920" lon="15.704249">
				<ele>425.000000</ele>
			</trkpt>
			<trkpt lat="49.744844" lon="15.704141">
				<ele>425.000000</ele>
			</trkpt>
			<trkpt lat="49.744774" lon="15.704043">
				<ele>423.000000</ele>
			</trkpt>
			<trkpt lat="49.744693" lon="15.703970">
				<ele>422.000000</ele>
			</trkpt>
			<trkpt lat="49.744571" lon="15.703854">
				<ele>420.000000</ele>
			</trkpt>
			<trkpt lat="49.744496" lon="15.703980">
				<ele>420.000000</ele>
			</trkpt>
			<trkpt lat="49.744414" lon="15.704096">
				<ele>420.000000</ele>
			</trkpt>
			<trkpt lat="49.744124" lon="15.704410">
				<ele>420.000000</ele>
			</trkpt>
			<trkpt lat="49.743961" lon="15.704572">
				<ele>420.000000</ele>
			</trkpt>
			<trkpt lat="49.743817" lon="15.704752">
				<ele>420.000000</ele>
			</trkpt>
			<trkpt lat="49.743671" lon="15.704941">
				<ele>420.000000</ele>
			</trkpt>
			<trkpt lat="49.743607" lon="15.705039">
				<ele>420.000000</ele>
			</trkpt>
			<trkpt lat="49.743555" lon="15.705138">
				<ele>420.000000</ele>
			</trkpt>
			<trkpt lat="49.743509" lon="15.705219">
				<ele>420.000000</ele>
			</trkpt>
			<trkpt lat="49.743450" lon="15.705372">
				<ele>420.000000</ele>
			</trkpt>
			<trkpt lat="49.743428" lon="15.705479">
				<ele>420.000000</ele>
			</trkpt>
			<trkpt lat="49.743399" lon="15.705588">
				<ele>420.000000</ele>
			</trkpt>
			<trkpt lat="49.743358" lon="15.705812">
				<ele>420.000000</ele>
			</trkpt>
			<trkpt lat="49.743312" lon="15.706018">
				<ele>420.000000</ele>
			</trkpt>
			<trkpt lat="49.743271" lon="15.706171">
				<ele>420.000000</ele>
			</trkpt>
			<trkpt lat="49.743207" lon="15.706333">
				<ele>420.000000</ele>
			</trkpt>
			<trkpt lat="49.743149" lon="15.706477">
				<ele>420.000000</ele>
			</trkpt>
			<trkpt lat="49.743085" lon="15.706603">
				<ele>420.000000</ele>
			</trkpt>
			<trkpt lat="49.743015" lon="15.706720">
				<ele>421.000000</ele>
			</trkpt>
			<trkpt lat="49.742940" lon="15.706836">
				<ele>421.000000</ele>
			</trkpt>
			<trkpt lat="49.742830" lon="15.706944">
				<ele>421.000000</ele>
			</trkpt>
			<trkpt lat="49.742713" lon="15.707070">
				<ele>422.000000</ele>
			</trkpt>
			<trkpt lat="49.742580" lon="15.707186">
				<ele>422.000000</ele>
			</trkpt>
			<trkpt lat="49.742423" lon="15.707312">
				<ele>422.000000</ele>
			</trkpt>
			<trkpt lat="49.742296" lon="15.707402">
				<ele>423.000000</ele>
			</trkpt>
			<trkpt lat="49.742197" lon="15.707519">
				<ele>423.000000</ele>
			</trkpt>
			<trkpt lat="49.742052" lon="15.707699">
				<ele>424.000000</ele>
			</trkpt>
			<trkpt lat="49.741889" lon="15.707932">
				<ele>424.000000</ele>
			</trkpt>
			<trkpt lat="49.740664" lon="15.709773">
				<ele>425.000000</ele>
			</trkpt>
			<trkpt lat="49.739921" lon="15.710915">
				<ele>425.000000</ele>
			</trkpt>
			<trkpt lat="49.739184" lon="15.711993">
				<ele>425.000000</ele>
			</trkpt>
			<trkpt lat="49.739103" lon="15.712136">
				<ele>425.000000</ele>
			</trkpt>
			<trkpt lat="49.739039" lon="15.712262">
				<ele>425.000000</ele>
			</trkpt>
			<trkpt lat="49.738992" lon="15.712406">
				<ele>425.000000</ele>
			</trkpt>
			<trkpt lat="49.738958" lon="15.712603">
				<ele>425.000000</ele>
			</trkpt>
			<trkpt lat="49.738742" lon="15.713708">
				<ele>425.000000</ele>
			</trkpt>
			<trkpt lat="49.738714" lon="15.713888">
				<ele>425.000000</ele>
			</trkpt>
			<trkpt lat="49.738702" lon="15.714068">
				<ele>425.000000</ele>
			</trkpt>
			<trkpt lat="49.738714" lon="15.714220">
				<ele>425.000000</ele>
			</trkpt>
			<trkpt lat="49.738731" lon="15.714391">
				<ele>425.000000</ele>
			</trkpt>
			<trkpt lat="49.738766" lon="15.714544">
				<ele>425.000000</ele>
			</trkpt>
			<trkpt lat="49.738824" lon="15.714714">
				<ele>425.000000</ele>
			</trkpt>
			<trkpt lat="49.738899" lon="15.714876">
				<ele>425.000000</ele>
			</trkpt>
			<trkpt lat="49.738987" lon="15.715065">
				<ele>425.000000</ele>
			</trkpt>
			<trkpt lat="49.739451" lon="15.715899">
				<ele>425.000000</ele>
			</trkpt>
			<trkpt lat="49.739736" lon="15.716448">
				<ele>426.000000</ele>
			</trkpt>
			<trkpt lat="49.739793" lon="15.716583">
				<ele>426.000000</ele>
			</trkpt>
			<trkpt lat="49.739846" lon="15.716754">
				<ele>426.000000</ele>
			</trkpt>
			<trkpt lat="49.739880" lon="15.716880">
				<ele>426.000000</ele>
			</trkpt>
			<trkpt lat="49.739898" lon="15.717060">
				<ele>427.000000</ele>
			</trkpt>
			<trkpt lat="49.739915" lon="15.717230">
				<ele>427.000000</ele>
			</trkpt>
			<trkpt lat="49.739915" lon="15.717410">
				<ele>427.000000</ele>
			</trkpt>
			<trkpt lat="49.739886" lon="15.717957">
				<ele>428.000000</ele>
			</trkpt>
			<trkpt lat="49.739828" lon="15.718874">
				<ele>430.000000</ele>
			</trkpt>
			<trkpt lat="49.739724" lon="15.720679">
				<ele>434.000000</ele>
			</trkpt>
			<trkpt lat="49.739654" lon="15.721631">
				<ele>436.000000</ele>
			</trkpt>
			<trkpt lat="49.739596" lon="15.722180">
				<ele>438.000000</ele>
			</trkpt>
			<trkpt lat="49.739520" lon="15.722746">
				<ele>439.000000</ele>
			</trkpt>
			<trkpt lat="49.739439" lon="15.723356">
				<ele>440.000000</ele>
			</trkpt>
			<trkpt lat="49.739347" lon="15.723878">
				<ele>441.000000</ele>
			</trkpt>
			<trkpt lat="49.739271" lon="15.724291">
				<ele>442.000000</ele>
			</trkpt>
			<trkpt lat="49.739213" lon="15.724721">
				<ele>442.000000</ele>
			</trkpt>
			<trkpt lat="49.739062" lon="15.726042">
				<ele>444.000000</ele>
			</trkpt>
			<trkpt lat="49.738975" lon="15.726618">
				<ele>445.000000</ele>
			</trkpt>
			<trkpt lat="49.738952" lon="15.726842">
				<ele>445.000000</ele>
			</trkpt>
			<trkpt lat="49.738893" lon="15.727094">
				<ele>445.000000</ele>
			</trkpt>
			<trkpt lat="49.738836" lon="15.727327">
				<ele>445.000000</ele>
			</trkpt>
			<trkpt lat="49.738783" lon="15.727534">
				<ele>445.000000</ele>
			</trkpt>
			<trkpt lat="49.738673" lon="15.727847">
				<ele>445.000000</ele>
			</trkpt>
			<trkpt lat="49.738417" lon="15.728557">
				<ele>445.000000</ele>
			</trkpt>
			<trkpt lat="49.738290" lon="15.728899">
				<ele>445.000000</ele>
			</trkpt>
			<trkpt lat="49.737901" lon="15.730103">
				<ele>445.000000</ele>
			</trkpt>
			<trkpt lat="49.737657" lon="15.730902">
				<ele>445.000000</ele>
			</trkpt>
			<trkpt lat="49.737436" lon="15.731675">
				<ele>445.000000</ele>
			</trkpt>
			<trkpt lat="49.736989" lon="15.733337">
				<ele>445.000000</ele>
			</trkpt>
			<trkpt lat="49.736838" lon="15.733902">
				<ele>446.000000</ele>
			</trkpt>
			<trkpt lat="49.736670" lon="15.734369">
				<ele>446.000000</ele>
			</trkpt>
			<trkpt lat="49.736490" lon="15.734845">
				<ele>447.000000</ele>
			</trkpt>
			<trkpt lat="49.736159" lon="15.735600">
				<ele>447.000000</ele>
			</trkpt>
			<trkpt lat="49.735747" lon="15.736535">
				<ele>448.000000</ele>
			</trkpt>
			<trkpt lat="49.735630" lon="15.736813">
				<ele>448.000000</ele>
			</trkpt>
			<trkpt lat="49.735538" lon="15.737073">
				<ele>448.000000</ele>
			</trkpt>
			<trkpt lat="49.735457" lon="15.737325">
				<ele>449.000000</ele>
			</trkpt>
			<trkpt lat="49.735381" lon="15.737558">
				<ele>449.000000</ele>
			</trkpt>
			<trkpt lat="49.735329" lon="15.737810">
				<ele>449.000000</ele>
			</trkpt>
			<trkpt lat="49.735271" lon="15.738124">
				<ele>449.000000</ele>
			</trkpt>
			<trkpt lat="49.735213" lon="15.738457">
				<ele>449.000000</ele>
			</trkpt>
			<trkpt lat="49.735166" lon="15.738834">
				<ele>450.000000</ele>
			</trkpt>
			<trkpt lat="49.735108" lon="15.739220">
				<ele>450.000000</ele>
			</trkpt>
			<trkpt lat="49.735044" lon="15.739535">
				<ele>450.000000</ele>
			</trkpt>
			<trkpt lat="49.734963" lon="15.739895">
				<ele>450.000000</ele>
			</trkpt>
			<trkpt lat="49.734667" lon="15.740918">
				<ele>450.000000</ele>
			</trkpt>
			<trkpt lat="49.734411" lon="15.741763">
				<ele>451.000000</ele>
			</trkpt>
			<trkpt lat="49.734568" lon="15.742248">
				<ele>452.000000</ele>
			</trkpt>
			<trkpt lat="49.734702" lon="15.742697">
				<ele>452.000000</ele>
			</trkpt>
			<trkpt lat="49.734806" lon="15.743119">
				<ele>453.000000</ele>
			</trkpt>
			<trkpt lat="49.734911" lon="15.743550">
				<ele>454.000000</ele>
			</trkpt>
			<trkpt lat="49.735010" lon="15.744071">
				<ele>455.000000</ele>
			</trkpt>
			<trkpt lat="49.735126" lon="15.744898">
				<ele>455.000000</ele>
			</trkpt>
			<trkpt lat="49.735224" lon="15.745589">
				<ele>455.000000</ele>
			</trkpt>
			<trkpt lat="49.735248" lon="15.745921">
				<ele>455.000000</ele>
			</trkpt>
			<trkpt lat="49.735254" lon="15.746200">
				<ele>455.000000</ele>
			</trkpt>
			<trkpt lat="49.735236" lon="15.746407">
				<ele>455.000000</ele>
			</trkpt>
			<trkpt lat="49.735219" lon="15.746524">
				<ele>455.000000</ele>
			</trkpt>
			<trkpt lat="49.735201" lon="15.746587">
				<ele>455.000000</ele>
			</trkpt>
			<trkpt lat="49.735091" lon="15.746793">
				<ele>455.000000</ele>
			</trkpt>
			<trkpt lat="49.734946" lon="15.746990">
				<ele>455.000000</ele>
			</trkpt>
			<trkpt lat="49.734864" lon="15.747099">
				<ele>455.000000</ele>
			</trkpt>
			<trkpt lat="49.734348" lon="15.747782">
				<ele>455.000000</ele>
			</trkpt>
			<trkpt lat="49.734110" lon="15.748087">
				<ele>455.000000</ele>
			</trkpt>
			<trkpt lat="49.733726" lon="15.748608">
				<ele>455.000000</ele>
			</trkpt>
			<trkpt lat="49.733192" lon="15.749336">
				<ele>455.000000</ele>
			</trkpt>
			<trkpt lat="49.732722" lon="15.749982">
				<ele>455.000000</ele>
			</trkpt>
			<trkpt lat="49.732548" lon="15.750198">
				<ele>455.000000</ele>
			</trkpt>
			<trkpt lat="49.732420" lon="15.750332">
				<ele>455.000000</ele>
			</trkpt>
			<trkpt lat="49.732275" lon="15.750476">
				<ele>455.000000</ele>
			</trkpt>
			<trkpt lat="49.732072" lon="15.750638">
				<ele>455.000000</ele>
			</trkpt>
			<trkpt lat="49.731781" lon="15.750881">
				<ele>456.000000</ele>
			</trkpt>
			<trkpt lat="49.731659" lon="15.750988">
				<ele>456.000000</ele>
			</trkpt>
			<trkpt lat="49.731555" lon="15.751114">
				<ele>456.000000</ele>
			</trkpt>
			<trkpt lat="49.731456" lon="15.751240">
				<ele>456.000000</ele>
			</trkpt>
			<trkpt lat="49.731334" lon="15.751401">
				<ele>456.000000</ele>
			</trkpt>
			<trkpt lat="49.731108" lon="15.751770">
				<ele>457.000000</ele>
			</trkpt>
			<trkpt lat="49.730556" lon="15.752732">
				<ele>457.000000</ele>
			</trkpt>
			<trkpt lat="49.730161" lon="15.753369">
				<ele>458.000000</ele>
			</trkpt>
			<trkpt lat="49.729970" lon="15.753684">
				<ele>458.000000</ele>
			</trkpt>
			<trkpt lat="49.729819" lon="15.753998">
				<ele>458.000000</ele>
			</trkpt>
			<trkpt lat="49.729679" lon="15.754330">
				<ele>458.000000</ele>
			</trkpt>
			<trkpt lat="49.729488" lon="15.754869">
				<ele>459.000000</ele>
			</trkpt>
			<trkpt lat="49.729459" lon="15.754969">
				<ele>459.000000</ele>
			</trkpt>
			<trkpt lat="49.729412" lon="15.755066">
				<ele>459.000000</ele>
			</trkpt>
			<trkpt lat="49.729365" lon="15.755147">
				<ele>459.000000</ele>
			</trkpt>
			<trkpt lat="49.729313" lon="15.755210">
				<ele>459.000000</ele>
			</trkpt>
			<trkpt lat="49.729186" lon="15.755309">
				<ele>459.000000</ele>
			</trkpt>
			<trkpt lat="49.728988" lon="15.755416">
				<ele>459.000000</ele>
			</trkpt>
			<trkpt lat="49.728791" lon="15.755543">
				<ele>459.000000</ele>
			</trkpt>
			<trkpt lat="49.728594" lon="15.755678">
				<ele>460.000000</ele>
			</trkpt>
			<trkpt lat="49.728129" lon="15.756055">
				<ele>460.000000</ele>
			</trkpt>
			<trkpt lat="49.727850" lon="15.756271">
				<ele>462.000000</ele>
			</trkpt>
			<trkpt lat="49.727670" lon="15.756441">
				<ele>463.000000</ele>
			</trkpt>
			<trkpt lat="49.727507" lon="15.756630">
				<ele>465.000000</ele>
			</trkpt>
			<trkpt lat="49.727333" lon="15.756845">
				<ele>465.000000</ele>
			</trkpt>
			<trkpt lat="49.727112" lon="15.757177">
				<ele>465.000000</ele>
			</trkpt>
			<trkpt lat="49.727031" lon="15.757313">
				<ele>465.000000</ele>
			</trkpt>
			<trkpt lat="49.726979" lon="15.757439">
				<ele>465.000000</ele>
			</trkpt>
			<trkpt lat="49.726927" lon="15.757564">
				<ele>465.000000</ele>
			</trkpt>
			<trkpt lat="49.726869" lon="15.757716">
				<ele>465.000000</ele>
			</trkpt>
			<trkpt lat="49.726787" lon="15.758032">
				<ele>465.000000</ele>
			</trkpt>
			<trkpt lat="49.726724" lon="15.758355">
				<ele>465.000000</ele>
			</trkpt>
			<trkpt lat="49.726631" lon="15.758848">
				<ele>465.000000</ele>
			</trkpt>
			<trkpt lat="49.726584" lon="15.759019">
				<ele>465.000000</ele>
			</trkpt>
			<trkpt lat="49.726526" lon="15.759163">
				<ele>465.000000</ele>
			</trkpt>
			<trkpt lat="49.726462" lon="15.759280">
				<ele>465.000000</ele>
			</trkpt>
			<trkpt lat="49.726381" lon="15.759370">
				<ele>465.000000</ele>
			</trkpt>
			<trkpt lat="49.726294" lon="15.759450">
				<ele>465.000000</ele>
			</trkpt>
			<trkpt lat="49.726172" lon="15.759523">
				<ele>465.000000</ele>
			</trkpt>
			<trkpt lat="49.725725" lon="15.759747">
				<ele>465.000000</ele>
			</trkpt>
			<trkpt lat="49.725521" lon="15.759854">
				<ele>465.000000</ele>
			</trkpt>
			<trkpt lat="49.725353" lon="15.759980">
				<ele>465.000000</ele>
			</trkpt>
			<trkpt lat="49.725196" lon="15.760133">
				<ele>465.000000</ele>
			</trkpt>
			<trkpt lat="49.725063" lon="15.760286">
				<ele>465.000000</ele>
			</trkpt>
			<trkpt lat="49.724929" lon="15.760456">
				<ele>465.000000</ele>
			</trkpt>
			<trkpt lat="49.724790" lon="15.760708">
				<ele>465.000000</ele>
			</trkpt>
			<trkpt lat="49.724650" lon="15.760969">
				<ele>465.000000</ele>
			</trkpt>
			<trkpt lat="49.724505" lon="15.761282">
				<ele>465.000000</ele>
			</trkpt>
			<trkpt lat="49.724372" lon="15.761607">
				<ele>465.000000</ele>
			</trkpt>
			<trkpt lat="49.724250" lon="15.761848">
				<ele>465.000000</ele>
			</trkpt>
			<trkpt lat="49.724116" lon="15.762074">
				<ele>465.000000</ele>
			</trkpt>
			<trkpt lat="49.723953" lon="15.762334">
				<ele>465.000000</ele>
			</trkpt>
			<trkpt lat="49.723797" lon="15.762594">
				<ele>465.000000</ele>
			</trkpt>
			<trkpt lat="49.723669" lon="15.762856">
				<ele>465.000000</ele>
			</trkpt>
			<trkpt lat="49.723471" lon="15.763269">
				<ele>465.000000</ele>
			</trkpt>
			<trkpt lat="49.723361" lon="15.763475">
				<ele>465.000000</ele>
			</trkpt>
			<trkpt lat="49.723176" lon="15.763808">
				<ele>464.000000</ele>
			</trkpt>
			<trkpt lat="49.723042" lon="15.764068">
				<ele>464.000000</ele>
			</trkpt>
			<trkpt lat="49.722949" lon="15.764301">
				<ele>464.000000</ele>
			</trkpt>
			<trkpt lat="49.722850" lon="15.764588">
				<ele>463.000000</ele>
			</trkpt>
			<trkpt lat="49.722722" lon="15.764975">
				<ele>463.000000</ele>
			</trkpt>
			<trkpt lat="49.722583" lon="15.765487">
				<ele>462.000000</ele>
			</trkpt>
			<trkpt lat="49.722415" lon="15.766072">
				<ele>461.000000</ele>
			</trkpt>
			<trkpt lat="49.721822" lon="15.767859">
				<ele>460.000000</ele>
			</trkpt>
			<trkpt lat="49.721653" lon="15.768416">
				<ele>460.000000</ele>
			</trkpt>
			<trkpt lat="49.721555" lon="15.768659">
				<ele>461.000000</ele>
			</trkpt>
			<trkpt lat="49.721445" lon="15.768909">
				<ele>461.000000</ele>
			</trkpt>
			<trkpt lat="49.721299" lon="15.769161">
				<ele>461.000000</ele>
			</trkpt>
			<trkpt lat="49.721090" lon="15.769475">
				<ele>462.000000</ele>
			</trkpt>
			<trkpt lat="49.721026" lon="15.769584">
				<ele>462.000000</ele>
			</trkpt>
			<trkpt lat="49.720963" lon="15.769709">
				<ele>462.000000</ele>
			</trkpt>
			<trkpt lat="49.720904" lon="15.769861">
				<ele>462.000000</ele>
			</trkpt>
			<trkpt lat="49.720870" lon="15.770014">
				<ele>462.000000</ele>
			</trkpt>
			<trkpt lat="49.720852" lon="15.770150">
				<ele>462.000000</ele>
			</trkpt>
			<trkpt lat="49.720829" lon="15.770311">
				<ele>463.000000</ele>
			</trkpt>
			<trkpt lat="49.720800" lon="15.771012">
				<ele>463.000000</ele>
			</trkpt>
			<trkpt lat="49.720771" lon="15.771605">
				<ele>464.000000</ele>
			</trkpt>
			<trkpt lat="49.720760" lon="15.771892">
				<ele>464.000000</ele>
			</trkpt>
			<trkpt lat="49.720754" lon="15.772144">
				<ele>464.000000</ele>
			</trkpt>
			<trkpt lat="49.720782" lon="15.772387">
				<ele>465.000000</ele>
			</trkpt>
			<trkpt lat="49.720835" lon="15.772953">
				<ele>465.000000</ele>
			</trkpt>
			<trkpt lat="49.720876" lon="15.773590">
				<ele>466.000000</ele>
			</trkpt>
			<trkpt lat="49.720939" lon="15.774408">
				<ele>468.000000</ele>
			</trkpt>
			<trkpt lat="49.720963" lon="15.774731">
				<ele>468.000000</ele>
			</trkpt>
			<trkpt lat="49.721114" lon="15.776509">
				<ele>470.000000</ele>
			</trkpt>
			<trkpt lat="49.721189" lon="15.777534">
				<ele>470.000000</ele>
			</trkpt>
			<trkpt lat="49.721195" lon="15.777767">
				<ele>470.000000</ele>
			</trkpt>
			<trkpt lat="49.721195" lon="15.777983">
				<ele>470.000000</ele>
			</trkpt>
			<trkpt lat="49.721183" lon="15.778144">
				<ele>470.000000</ele>
			</trkpt>
			<trkpt lat="49.721155" lon="15.778314">
				<ele>470.000000</ele>
			</trkpt>
			<trkpt lat="49.721120" lon="15.778432">
				<ele>470.000000</ele>
			</trkpt>
			<trkpt lat="49.721073" lon="15.778530">
				<ele>470.000000</ele>
			</trkpt>
			<trkpt lat="49.721009" lon="15.778630">
				<ele>470.000000</ele>
			</trkpt>
			<trkpt lat="49.720876" lon="15.778819">
				<ele>470.000000</ele>
			</trkpt>
			<trkpt lat="49.720817" lon="15.778899">
				<ele>471.000000</ele>
			</trkpt>
			<trkpt lat="49.720765" lon="15.778989">
				<ele>471.000000</ele>
			</trkpt>
			<trkpt lat="49.720730" lon="15.779123">
				<ele>472.000000</ele>
			</trkpt>
			<trkpt lat="49.720707" lon="15.779285">
				<ele>473.000000</ele>
			</trkpt>
			<trkpt lat="49.720707" lon="15.779456">
				<ele>474.000000</ele>
			</trkpt>
			<trkpt lat="49.720725" lon="15.779654">
				<ele>475.000000</ele>
			</trkpt>
			<trkpt lat="49.720748" lon="15.779842">
				<ele>476.000000</ele>
			</trkpt>
			<trkpt lat="49.720812" lon="15.780264">
				<ele>478.000000</ele>
			</trkpt>
			<trkpt lat="49.720951" lon="15.781100">
				<ele>483.000000</ele>
			</trkpt>
			<trkpt lat="49.720963" lon="15.781234">
				<ele>484.000000</ele>
			</trkpt>
			<trkpt lat="49.720974" lon="15.781351">
				<ele>485.000000</ele>
			</trkpt>
			<trkpt lat="49.720974" lon="15.781459">
				<ele>485.000000</ele>
			</trkpt>
			<trkpt lat="49.720963" lon="15.781567">
				<ele>486.000000</ele>
			</trkpt>
			<trkpt lat="49.720928" lon="15.781792">
				<ele>487.000000</ele>
			</trkpt>
			<trkpt lat="49.720852" lon="15.782043">
				<ele>489.000000</ele>
			</trkpt>
			<trkpt lat="49.720620" lon="15.782672">
				<ele>493.000000</ele>
			</trkpt>
			<trkpt lat="49.720533" lon="15.782905">
				<ele>494.000000</ele>
			</trkpt>
			<trkpt lat="49.720393" lon="15.783264">
				<ele>495.000000</ele>
			</trkpt>
			<trkpt lat="49.720300" lon="15.783597">
				<ele>495.000000</ele>
			</trkpt>
			<trkpt lat="49.720219" lon="15.783930">
				<ele>496.000000</ele>
			</trkpt>
			<trkpt lat="49.720173" lon="15.784136">
				<ele>496.000000</ele>
			</trkpt>
			<trkpt lat="49.720115" lon="15.784289">
				<ele>496.000000</ele>
			</trkpt>
			<trkpt lat="49.720051" lon="15.784450">
				<ele>496.000000</ele>
			</trkpt>
			<trkpt lat="49.719952" lon="15.784630">
				<ele>496.000000</ele>
			</trkpt>
			<trkpt lat="49.719889" lon="15.784746">
				<ele>496.000000</ele>
			</trkpt>
			<trkpt lat="49.719819" lon="15.784891">
				<ele>496.000000</ele>
			</trkpt>
			<trkpt lat="49.719767" lon="15.784855">
				<ele>497.000000</ele>
			</trkpt>
			<trkpt lat="49.719767" lon="15.784855">
				<ele>497.000000</ele>
			</trkpt>
			<trkpt lat="49.719592" lon="15.784720">
				<ele>499.000000</ele>
			</trkpt>
			<trkpt lat="49.719209" lon="15.784567">
				<ele>503.000000</ele>
			</trkpt>
			<trkpt lat="49.718994" lon="15.784505">
				<ele>504.000000</ele>
			</trkpt>
			<trkpt lat="49.718796" lon="15.784450">
				<ele>505.000000</ele>
			</trkpt>
			<trkpt lat="49.718192" lon="15.784190">
				<ele>506.000000</ele>
			</trkpt>
			<trkpt lat="49.717977" lon="15.784100">
				<ele>506.000000</ele>
			</trkpt>
			<trkpt lat="49.717774" lon="15.784046">
				<ele>506.000000</ele>
			</trkpt>
			<trkpt lat="49.717536" lon="15.783983">
				<ele>506.000000</ele>
			</trkpt>
			<trkpt lat="49.717321" lon="15.783966">
				<ele>507.000000</ele>
			</trkpt>
			<trkpt lat="49.716937" lon="15.783983">
				<ele>507.000000</ele>
			</trkpt>
			<trkpt lat="49.716758" lon="15.783983">
				<ele>507.000000</ele>
			</trkpt>
			<trkpt lat="49.716618" lon="15.783956">
				<ele>507.000000</ele>
			</trkpt>
			<trkpt lat="49.716369" lon="15.783813">
				<ele>508.000000</ele>
			</trkpt>
			<trkpt lat="49.716299" lon="15.783786">
				<ele>508.000000</ele>
			</trkpt>
			<trkpt lat="49.716223" lon="15.783767">
				<ele>508.000000</ele>
			</trkpt>
			<trkpt lat="49.715927" lon="15.783750">
				<ele>508.000000</ele>
			</trkpt>
			<trkpt lat="49.715399" lon="15.783767">
				<ele>509.000000</ele>
			</trkpt>
			<trkpt lat="49.715149" lon="15.783767">
				<ele>509.000000</ele>
			</trkpt>
			<trkpt lat="49.714562" lon="15.783714">
				<ele>510.000000</ele>
			</trkpt>
			<trkpt lat="49.713917" lon="15.783633">
				<ele>513.000000</ele>
			</trkpt>
			<trkpt lat="49.713807" lon="15.783606">
				<ele>514.000000</ele>
			</trkpt>
			<trkpt lat="49.713703" lon="15.783580">
				<ele>515.000000</ele>
			</trkpt>
			<trkpt lat="49.713546" lon="15.783507">
				<ele>517.000000</ele>
			</trkpt>
			<trkpt lat="49.713406" lon="15.783417">
				<ele>518.000000</ele>
			</trkpt>
			<trkpt lat="49.713313" lon="15.783364">
				<ele>520.000000</ele>
			</trkpt>
			<trkpt lat="49.713093" lon="15.783167">
				<ele>523.000000</ele>
			</trkpt>
			<trkpt lat="49.712843" lon="15.783004">
				<ele>527.000000</ele>
			</trkpt>
			<trkpt lat="49.712732" lon="15.782905">
				<ele>529.000000</ele>
			</trkpt>
			<trkpt lat="49.712599" lon="15.782735">
				<ele>532.000000</ele>
			</trkpt>
			<trkpt lat="49.712466" lon="15.782528">
				<ele>536.000000</ele>
			</trkpt>
			<trkpt lat="49.712366" lon="15.782349">
				<ele>539.000000</ele>
			</trkpt>
			<trkpt lat="49.712117" lon="15.781855">
				<ele>547.000000</ele>
			</trkpt>
			<trkpt lat="49.711983" lon="15.781630">
				<ele>550.000000</ele>
			</trkpt>
			<trkpt lat="49.711896" lon="15.781522">
				<ele>550.000000</ele>
			</trkpt>
			<trkpt lat="49.711827" lon="15.781433">
				<ele>551.000000</ele>
			</trkpt>
			<trkpt lat="49.711710" lon="15.781333">
				<ele>551.000000</ele>
			</trkpt>
			<trkpt lat="49.711617" lon="15.781270">
				<ele>552.000000</ele>
			</trkpt>
			<trkpt lat="49.711501" lon="15.781199">
				<ele>552.000000</ele>
			</trkpt>
			<trkpt lat="49.711402" lon="15.781163">
				<ele>552.000000</ele>
			</trkpt>
			<trkpt lat="49.711297" lon="15.781154">
				<ele>553.000000</ele>
			</trkpt>
			<trkpt lat="49.711164" lon="15.781144">
				<ele>553.000000</ele>
			</trkpt>
			<trkpt lat="49.711083" lon="15.781144">
				<ele>554.000000</ele>
			</trkpt>
			<trkpt lat="49.711002" lon="15.781172">
				<ele>554.000000</ele>
			</trkpt>
			<trkpt lat="49.710793" lon="15.781270">
				<ele>555.000000</ele>
			</trkpt>
			<trkpt lat="49.710723" lon="15.781280">
				<ele>555.000000</ele>
			</trkpt>
			<trkpt lat="49.710647" lon="15.781280">
				<ele>555.000000</ele>
			</trkpt>
			<trkpt lat="49.710595" lon="15.781262">
				<ele>556.000000</ele>
			</trkpt>
			<trkpt lat="49.710542" lon="15.781234">
				<ele>556.000000</ele>
			</trkpt>
			<trkpt lat="49.710392" lon="15.781083">
				<ele>556.000000</ele>
			</trkpt>
			<trkpt lat="49.710316" lon="15.781028">
				<ele>557.000000</ele>
			</trkpt>
			<trkpt lat="49.710217" lon="15.780964">
				<ele>557.000000</ele>
			</trkpt>
			<trkpt lat="49.710113" lon="15.780938">
				<ele>558.000000</ele>
			</trkpt>
			<trkpt lat="49.709997" lon="15.780911">
				<ele>558.000000</ele>
			</trkpt>
			<trkpt lat="49.709869" lon="15.780903">
				<ele>559.000000</ele>
			</trkpt>
			<trkpt lat="49.709659" lon="15.780920">
				<ele>559.000000</ele>
			</trkpt>
			<trkpt lat="49.709456" lon="15.780983">
				<ele>561.000000</ele>
			</trkpt>
			<trkpt lat="49.709212" lon="15.781046">
				<ele>564.000000</ele>
			</trkpt>
			<trkpt lat="49.708742" lon="15.781127">
				<ele>569.000000</ele>
			</trkpt>
			<trkpt lat="49.708515" lon="15.781172">
				<ele>574.000000</ele>
			</trkpt>
			<trkpt lat="49.708376" lon="15.781100">
				<ele>574.000000</ele>
			</trkpt>
			<trkpt lat="49.708051" lon="15.781001">
				<ele>575.000000</ele>
			</trkpt>
			<trkpt lat="49.707905" lon="15.780947">
				<ele>575.000000</ele>
			</trkpt>
			<trkpt lat="49.707766" lon="15.780875">
				<ele>575.000000</ele>
			</trkpt>
			<trkpt lat="49.707632" lon="15.780785">
				<ele>575.000000</ele>
			</trkpt>
			<trkpt lat="49.707469" lon="15.780633">
				<ele>575.000000</ele>
			</trkpt>
			<trkpt lat="49.707318" lon="15.780444">
				<ele>576.000000</ele>
			</trkpt>
			<trkpt lat="49.707243" lon="15.780354">
				<ele>576.000000</ele>
			</trkpt>
			<trkpt lat="49.707121" lon="15.780112">
				<ele>577.000000</ele>
			</trkpt>
			<trkpt lat="49.707057" lon="15.780012">
				<ele>577.000000</ele>
			</trkpt>
			<trkpt lat="49.707005" lon="15.779878">
				<ele>578.000000</ele>
			</trkpt>
			<trkpt lat="49.706883" lon="15.779635">
				<ele>578.000000</ele>
			</trkpt>
			<trkpt lat="49.706830" lon="15.779501">
				<ele>579.000000</ele>
			</trkpt>
			<trkpt lat="49.706767" lon="15.779330">
				<ele>579.000000</ele>
			</trkpt>
			<trkpt lat="49.706726" lon="15.779123">
				<ele>580.000000</ele>
			</trkpt>
			<trkpt lat="49.706662" lon="15.778773">
				<ele>580.000000</ele>
			</trkpt>
			<trkpt lat="49.706621" lon="15.778414">
				<ele>581.000000</ele>
			</trkpt>
			<trkpt lat="49.706528" lon="15.777444">
				<ele>582.000000</ele>
			</trkpt>
			<trkpt lat="49.706494" lon="15.777075">
				<ele>583.000000</ele>
			</trkpt>
			<trkpt lat="49.706406" lon="15.776483">
				<ele>584.000000</ele>
			</trkpt>
			<trkpt lat="49.706302" lon="15.775880">
				<ele>585.000000</ele>
			</trkpt>
			<trkpt lat="49.706058" lon="15.774758">
				<ele>586.000000</ele>
			</trkpt>
			<trkpt lat="49.706005" lon="15.774479">
				<ele>586.000000</ele>
			</trkpt>
			<trkpt lat="49.705965" lon="15.774156">
				<ele>586.000000</ele>
			</trkpt>
			<trkpt lat="49.705942" lon="15.773976">
				<ele>586.000000</ele>
			</trkpt>
			<trkpt lat="49.705930" lon="15.773796">
				<ele>587.000000</ele>
			</trkpt>
			<trkpt lat="49.705924" lon="15.773670">
				<ele>587.000000</ele>
			</trkpt>
			<trkpt lat="49.705924" lon="15.773383">
				<ele>587.000000</ele>
			</trkpt>
			<trkpt lat="49.705907" lon="15.773186">
				<ele>587.000000</ele>
			</trkpt>
			<trkpt lat="49.705889" lon="15.773114">
				<ele>587.000000</ele>
			</trkpt>
			<trkpt lat="49.705849" lon="15.773060">
				<ele>587.000000</ele>
			</trkpt>
			<trkpt lat="49.705791" lon="15.773033">
				<ele>587.000000</ele>
			</trkpt>
			<trkpt lat="49.705709" lon="15.773006">
				<ele>587.000000</ele>
			</trkpt>
			<trkpt lat="49.705721" lon="15.772907">
				<ele>588.000000</ele>
			</trkpt>
			<trkpt lat="49.705715" lon="15.772827">
				<ele>588.000000</ele>
			</trkpt>
			<trkpt lat="49.705698" lon="15.772737">
				<ele>588.000000</ele>
			</trkpt>
			<trkpt lat="49.705663" lon="15.772638">
				<ele>588.000000</ele>
			</trkpt>
			<trkpt lat="49.705617" lon="15.772575">
				<ele>588.000000</ele>
			</trkpt>
			<trkpt lat="49.705570" lon="15.772485">
				<ele>589.000000</ele>
			</trkpt>
			<trkpt lat="49.705372" lon="15.772278">
				<ele>589.000000</ele>
			</trkpt>
			<trkpt lat="49.705239" lon="15.772108">
				<ele>590.000000</ele>
			</trkpt>
			<trkpt lat="49.705117" lon="15.771938">
				<ele>590.000000</ele>
			</trkpt>
			<trkpt lat="49.705012" lon="15.771758">
				<ele>590.000000</ele>
			</trkpt>
			<trkpt lat="49.704913" lon="15.771586">
				<ele>590.000000</ele>
			</trkpt>
			<trkpt lat="49.704762" lon="15.771272">
				<ele>590.000000</ele>
			</trkpt>
			<trkpt lat="49.704379" lon="15.770356">
				<ele>590.000000</ele>
			</trkpt>
			<trkpt lat="49.704304" lon="15.770185">
				<ele>590.000000</ele>
			</trkpt>
			<trkpt lat="49.704304" lon="15.770185">
				<ele>590.000000</ele>
			</trkpt>
			<trkpt lat="49.704274" lon="15.770114">
				<ele>590.000000</ele>
			</trkpt>
			<trkpt lat="49.704239" lon="15.769970">
				<ele>590.000000</ele>
			</trkpt>
			<trkpt lat="49.704204" lon="15.769835">
				<ele>590.000000</ele>
			</trkpt>
			<trkpt lat="49.704106" lon="15.769261">
				<ele>588.000000</ele>
			</trkpt>
			<trkpt lat="49.704082" lon="15.769161">
				<ele>587.000000</ele>
			</trkpt>
			<trkpt lat="49.704053" lon="15.769089">
				<ele>587.000000</ele>
			</trkpt>
			<trkpt lat="49.704013" lon="15.769026">
				<ele>586.000000</ele>
			</trkpt>
			<trkpt lat="49.703920" lon="15.768936">
				<ele>585.000000</ele>
			</trkpt>
			<trkpt lat="49.703803" lon="15.768838">
				<ele>584.000000</ele>
			</trkpt>
			<trkpt lat="49.703682" lon="15.768785">
				<ele>582.000000</ele>
			</trkpt>
			<trkpt lat="49.703548" lon="15.768766">
				<ele>581.000000</ele>
			</trkpt>
			<trkpt lat="49.703292" lon="15.768775">
				<ele>578.000000</ele>
			</trkpt>
			<trkpt lat="49.703095" lon="15.768775">
				<ele>576.000000</ele>
			</trkpt>
			<trkpt lat="49.702700" lon="15.768739">
				<ele>571.000000</ele>
			</trkpt>
			<trkpt lat="49.702584" lon="15.768712">
				<ele>570.000000</ele>
			</trkpt>
			<trkpt lat="49.702490" lon="15.768676">
				<ele>570.000000</ele>
			</trkpt>
			<trkpt lat="49.702456" lon="15.768640">
				<ele>569.000000</ele>
			</trkpt>
			<trkpt lat="49.702421" lon="15.768595">
				<ele>569.000000</ele>
			</trkpt>
			<trkpt lat="49.702380" lon="15.768496">
				<ele>569.000000</ele>
			</trkpt>
			<trkpt lat="49.702165" lon="15.767777">
				<ele>566.000000</ele>
			</trkpt>
			<trkpt lat="49.702020" lon="15.767131">
				<ele>564.000000</ele>
			</trkpt>
			<trkpt lat="49.701863" lon="15.767643">
				<ele>565.000000</ele>
			</trkpt>
			<trkpt lat="49.701753" lon="15.768056">
				<ele>565.000000</ele>
			</trkpt>
			<trkpt lat="49.701735" lon="15.768110">
				<ele>565.000000</ele>
			</trkpt>
			<trkpt lat="49.701707" lon="15.768156">
				<ele>564.000000</ele>
			</trkpt>
			<trkpt lat="49.701689" lon="15.768182">
				<ele>564.000000</ele>
			</trkpt>
			<trkpt lat="49.701654" lon="15.768190">
				<ele>564.000000</ele>
			</trkpt>
			<trkpt lat="49.701613" lon="15.768209">
				<ele>564.000000</ele>
			</trkpt>
			<trkpt lat="49.701561" lon="15.768190">
				<ele>563.000000</ele>
			</trkpt>
			<trkpt lat="49.701462" lon="15.768137">
				<ele>562.000000</ele>
			</trkpt>
			<trkpt lat="49.701398" lon="15.768299">
				<ele>562.000000</ele>
			</trkpt>
			<trkpt lat="49.701050" lon="15.768173">
				<ele>560.000000</ele>
			</trkpt>
			<trkpt lat="49.701009" lon="15.768398">
				<ele>560.000000</ele>
			</trkpt>
			<trkpt lat="49.701009" lon="15.768416">
				<ele>560.000000</ele>
			</trkpt>
		</trkseg>
	</trk>
</gpx>

